{
    "type": "FeatureCollection",
    "features": [
        {
            "type": "Feature",
            "geometry": {
                "type": "Point",
                "coordinates": [
                    -46.6937412022694,
                    -23.5668309564147
                ]
            },
            "properties": "Largo da Batata"
        },
        {
            "type": "Feature",
            "geometry": {
                "type": "Point",
                "coordinates": [
                    -46.69819,
                    -23.56692
                ]
            },
            "properties": "SESC Pinheiros"
        },
        {
            "type": "Feature",
            "geometry": {
                "type": "Point",
                "coordinates": [
                    -46.7012582819428,
                    -23.5664776214954
                ]
            },
            "properties": "CPTM Pinheiros"
        },
        {
            "type": "Feature",
            "geometry": {
                "type": "Point",
                "coordinates": [
                    -46.6920025786078,
                    -23.5691446194095
                ]
            },
            "properties": "Rua Diogo Moreira"
        },
        {
            "type": "Feature",
            "geometry": {
                "type": "Point",
                "coordinates": [
                    -46.6978971886828,
                    -23.5698942495294
                ]
            },
            "properties": "Chicão Vive"
        },
        {
            "type": "Feature",
            "geometry": {
                "type": "Point",
                "coordinates": [
                    -46.6901067804038,
                    -23.5721366373874
                ]
            },
            "properties": "Rua Manduri"
        },
        {
            "type": "Feature",
            "geometry": {
                "type": "Point",
                "coordinates": [
                    -46.6936810045059,
                    -23.5725441757412
                ]
            },
            "properties": "Praça Joaquim Roberto"
        },
        {
            "type": "Feature",
            "geometry": {
                "type": "Point",
                "coordinates": [
                    -46.6873608611159,
                    -23.575610896422
                ]
            },
            "properties": "Rua Grécia"
        },
        {
            "type": "Feature",
            "geometry": {
                "type": "Point",
                "coordinates": [
                    -46.6893026745285,
                    -23.5746792860054
                ]
            },
            "properties": "Rua Campo Verde"
        },
        {
            "type": "Feature",
            "geometry": {
                "type": "Point",
                "coordinates": [
                    -46.6942387102708,
                    -23.5655687544014
                ]
            },
            "properties": "Praça Faria Lima"
        },
        {
            "type": "Feature",
            "geometry": {
                "type": "Point",
                "coordinates": [
                    -46.6939591666242,
                    -23.5661641536793
                ]
            },
            "properties": "Largo da Batata II"
        },
        {
            "type": "Feature",
            "geometry": {
                "type": "Point",
                "coordinates": [
                    -46.6906372471165,
                    -23.5795958800921
                ]
            },
            "properties": "Esporte Clube Pinheiros Funcionários"
        },
        {
            "type": "Feature",
            "geometry": {
                "type": "Point",
                "coordinates": [
                    -46.6847086015679,
                    -23.5808802329648
                ]
            },
            "properties": "Museu da Casa Brasileira"
        },
        {
            "type": "Feature",
            "geometry": {
                "type": "Point",
                "coordinates": [
                    -46.6870353144305,
                    -23.5824196171547
                ]
            },
            "properties": "Rua Prof. Artur Ramos"
        },
        {
            "type": "Feature",
            "geometry": {
                "type": "Point",
                "coordinates": [
                    -46.6912872947886,
                    -23.5823017032445
                ]
            },
            "properties": "Esporte Clube Pinheiros Boliche"
        },
        {
            "type": "Feature",
            "geometry": {
                "type": "Point",
                "coordinates": [
                    -46.6829077712383,
                    -23.5843221297715
                ]
            },
            "properties": "Rua José Gonçalves de Oliveira"
        },
        {
            "type": "Feature",
            "geometry": {
                "type": "Point",
                "coordinates": [
                    -46.6839182197003,
                    -23.5866957209891
                ]
            },
            "properties": "Itaú Faria Lima"
        },
        {
            "type": "Feature",
            "geometry": {
                "type": "Point",
                "coordinates": [
                    -46.6907050831378,
                    -23.5957237516205
                ]
            },
            "properties": "Av. Dr. Cardoso de Melo"
        },
        {
            "type": "Feature",
            "geometry": {
                "type": "Point",
                "coordinates": [
                    -46.6904367894373,
                    -23.5850202930326
                ]
            },
            "properties": "CPTM Cidade Jardim"
        },
        {
            "type": "Feature",
            "geometry": {
                "type": "Point",
                "coordinates": [
                    -46.6882179128703,
                    -23.5890444167307
                ]
            },
            "properties": "Parque do Povo portão 1"
        },
        {
            "type": "Feature",
            "geometry": {
                "type": "Point",
                "coordinates": [
                    -46.683922812607,
                    -23.5892048894301
                ]
            },
            "properties": "Rua Leopoldo Couto"
        },
        {
            "type": "Feature",
            "geometry": {
                "type": "Point",
                "coordinates": [
                    -46.6912681158608,
                    -23.5939175701022
                ]
            },
            "properties": "CPTM Vila Olímpia"
        },
        {
            "type": "Feature",
            "geometry": {
                "type": "Point",
                "coordinates": [
                    -46.6880574172455,
                    -23.5926646139517
                ]
            },
            "properties": "Rua Funchal"
        },
        {
            "type": "Feature",
            "geometry": {
                "type": "Point",
                "coordinates": [
                    -46.6844661081167,
                    -23.5927625500081
                ]
            },
            "properties": "Rua Helena"
        },
        {
            "type": "Feature",
            "geometry": {
                "type": "Point",
                "coordinates": [
                    -46.6831999429786,
                    -23.5954418983024
                ]
            },
            "properties": "Praça Pierre Germayel"
        },
        {
            "type": "Feature",
            "geometry": {
                "type": "Point",
                "coordinates": [
                    -46.6770266849259,
                    -23.5933504143939
                ]
            },
            "properties": "Rua Comendador Miguel Calfat"
        },
        {
            "type": "Feature",
            "geometry": {
                "type": "Point",
                "coordinates": [
                    -46.6737765059991,
                    -23.5902983608513
                ]
            },
            "properties": "Bandeira Paulista"
        },
        {
            "type": "Feature",
            "geometry": {
                "type": "Point",
                "coordinates": [
                    -46.6659155439702,
                    -23.5904191029121
                ]
            },
            "properties": "Ibirapuera Portão 07"
        },
        {
            "type": "Feature",
            "geometry": {
                "type": "Point",
                "coordinates": [
                    -46.624649,
                    -23.508128
                ]
            },
            "properties": "Parque da Juventude"
        },
        {
            "type": "Feature",
            "geometry": {
                "type": "Point",
                "coordinates": [
                    -46.6730159471865,
                    -23.5872880300388
                ]
            },
            "properties": "Rua Benedito Lapin"
        },
        {
            "type": "Feature",
            "geometry": {
                "type": "Point",
                "coordinates": [
                    -46.6760816781162,
                    -23.5867932793431
                ]
            },
            "properties": "E.E. Aristides de Castro"
        },
        {
            "type": "Feature",
            "geometry": {
                "type": "Point",
                "coordinates": [
                    -46.679125355911,
                    -23.5876426356319
                ]
            },
            "properties": "Edifício Infinity"
        },
        {
            "type": "Feature",
            "geometry": {
                "type": "Point",
                "coordinates": [
                    -46.6750812615918,
                    -23.5822156117651
                ]
            },
            "properties": "Rua Jesuíno Arruda"
        },
        {
            "type": "Feature",
            "geometry": {
                "type": "Point",
                "coordinates": [
                    -46.6720676960475,
                    -23.5836480572258
                ]
            },
            "properties": "Brasília"
        },
        {
            "type": "Feature",
            "geometry": {
                "type": "Point",
                "coordinates": [
                    -46.71819,
                    -23.65562
                ]
            },
            "properties": "CPTM Santo Amaro"
        },
        {
            "type": "Feature",
            "geometry": {
                "type": "Point",
                "coordinates": [
                    -46.626379384731,
                    -23.5043385999018
                ]
            },
            "properties": "Herois da FEB"
        },
        {
            "type": "Feature",
            "geometry": {
                "type": "Point",
                "coordinates": [
                    -46.6348733614184,
                    -23.5033576293652
                ]
            },
            "properties": "Pç Tenente Coronel Heleuses Nogueira"
        },
        {
            "type": "Feature",
            "geometry": {
                "type": "Point",
                "coordinates": [
                    -46.6705247776249,
                    -23.5787313776399
                ]
            },
            "properties": "Suzano"
        },
        {
            "type": "Feature",
            "geometry": {
                "type": "Point",
                "coordinates": [
                    -46.6732522004535,
                    -23.5795039033974
                ]
            },
            "properties": "Itacema"
        },
        {
            "type": "Feature",
            "geometry": {
                "type": "Point",
                "coordinates": [
                    -46.6804310364019,
                    -23.5825417630555
                ]
            },
            "properties": "Rua Prof. Carlos de Carvalho"
        },
        {
            "type": "Feature",
            "geometry": {
                "type": "Point",
                "coordinates": [
                    -46.6383175924585,
                    -23.503586032441
                ]
            },
            "properties": "Braz Leme"
        },
        {
            "type": "Feature",
            "geometry": {
                "type": "Point",
                "coordinates": [
                    -46.6820977165766,
                    -23.5871323494481
                ]
            },
            "properties": "Google São Paulo"
        },
        {
            "type": "Feature",
            "geometry": {
                "type": "Point",
                "coordinates": [
                    -46.6818450911924,
                    -23.5578862207592
                ]
            },
            "properties": "Henrique Schaumann"
        },
        {
            "type": "Feature",
            "geometry": {
                "type": "Point",
                "coordinates": [
                    -46.6788126288953,
                    -23.5533637490461
                ]
            },
            "properties": "Praça Caetano Fracaroli"
        },
        {
            "type": "Feature",
            "geometry": {
                "type": "Point",
                "coordinates": [
                    -46.6826805765615,
                    -23.5552633465693
                ]
            },
            "properties": "R. Lisboa"
        },
        {
            "type": "Feature",
            "geometry": {
                "type": "Point",
                "coordinates": [
                    -46.6926703781386,
                    -23.5561973682702
                ]
            },
            "properties": "EBAC"
        },
        {
            "type": "Feature",
            "geometry": {
                "type": "Point",
                "coordinates": [
                    -46.652813156586,
                    -23.5101281717627
                ]
            },
            "properties": "Euclides da Silveira"
        },
        {
            "type": "Feature",
            "geometry": {
                "type": "Point",
                "coordinates": [
                    -46.655159299844,
                    -23.518556638408
                ]
            },
            "properties": "Ponte da Casa Verde"
        },
        {
            "type": "Feature",
            "geometry": {
                "type": "Point",
                "coordinates": [
                    -46.6553521728984,
                    -23.5232231767525
                ]
            },
            "properties": "Pça. Pe. Luís Alves de S. Castro"
        },
        {
            "type": "Feature",
            "geometry": {
                "type": "Point",
                "coordinates": [
                    -46.6691871435547,
                    -23.5685869226542
                ]
            },
            "properties": "Club Athletico Paulistano"
        },
        {
            "type": "Feature",
            "geometry": {
                "type": "Point",
                "coordinates": [
                    -46.6611375590414,
                    -23.5220468993985
                ]
            },
            "properties": "Av. Marques de São Vicente"
        },
        {
            "type": "Feature",
            "geometry": {
                "type": "Point",
                "coordinates": [
                    -46.6641982855369,
                    -23.5252688094018
                ]
            },
            "properties": "Terminal Barra Funda "
        },
        {
            "type": "Feature",
            "geometry": {
                "type": "Point",
                "coordinates": [
                    -46.6670056971772,
                    -23.5268792944008
                ]
            },
            "properties": "Metrô Barra Funda"
        },
        {
            "type": "Feature",
            "geometry": {
                "type": "Point",
                "coordinates": [
                    -46.6661266859547,
                    -23.5302119408073
                ]
            },
            "properties": "Matarazzo"
        },
        {
            "type": "Feature",
            "geometry": {
                "type": "Point",
                "coordinates": [
                    -46.6647314847334,
                    -23.5703822522674
                ]
            },
            "properties": "Praça Nicolau Scarpa"
        },
        {
            "type": "Feature",
            "geometry": {
                "type": "Point",
                "coordinates": [
                    -46.6660490874622,
                    -23.5657634935473
                ]
            },
            "properties": "Oscar Freire"
        },
        {
            "type": "Feature",
            "geometry": {
                "type": "Point",
                "coordinates": [
                    -46.6596995408145,
                    -23.5699175975531
                ]
            },
            "properties": "Pamplona"
        },
        {
            "type": "Feature",
            "geometry": {
                "type": "Point",
                "coordinates": [
                    -46.6586038186061,
                    -23.5727335213451
                ]
            },
            "properties": "Queluz"
        },
        {
            "type": "Feature",
            "geometry": {
                "type": "Point",
                "coordinates": [
                    -46.6564518396582,
                    -23.5770321440522
                ]
            },
            "properties": "Ginásio Ibirapuera"
        },
        {
            "type": "Feature",
            "geometry": {
                "type": "Point",
                "coordinates": [
                    -46.6562492364418,
                    -23.5801537882927
                ]
            },
            "properties": "Círculo Militar"
        },
        {
            "type": "Feature",
            "geometry": {
                "type": "Point",
                "coordinates": [
                    -46.6504327496116,
                    -23.5803036309472
                ]
            },
            "properties": "Viaduto Tutóia"
        },
        {
            "type": "Feature",
            "geometry": {
                "type": "Point",
                "coordinates": [
                    -46.6540400716306,
                    -23.5742984595697
                ]
            },
            "properties": "8º Batalhão"
        },
        {
            "type": "Feature",
            "geometry": {
                "type": "Point",
                "coordinates": [
                    -46.6553101677443,
                    -23.570389641893
                ]
            },
            "properties": "Alameda J. Eugênio de Lima"
        },
        {
            "type": "Feature",
            "geometry": {
                "type": "Point",
                "coordinates": [
                    -46.6615507480199,
                    -23.5281721668385
                ]
            },
            "properties": "Pça David Raw"
        },
        {
            "type": "Feature",
            "geometry": {
                "type": "Point",
                "coordinates": [
                    -46.6569662423861,
                    -23.5645177063061
                ]
            },
            "properties": "Praça Alexandre de Gusmão"
        },
        {
            "type": "Feature",
            "geometry": {
                "type": "Point",
                "coordinates": [
                    -46.6839358914948,
                    -23.5252011996403
                ]
            },
            "properties": "SESC Pompéia"
        },
        {
            "type": "Feature",
            "geometry": {
                "type": "Point",
                "coordinates": [
                    -46.6776241047456,
                    -23.5295509375709
                ]
            },
            "properties": "Palestra Itália"
        },
        {
            "type": "Feature",
            "geometry": {
                "type": "Point",
                "coordinates": [
                    -46.6649115916232,
                    -23.562835912553
                ]
            },
            "properties": "Augusta"
        },
        {
            "type": "Feature",
            "geometry": {
                "type": "Point",
                "coordinates": [
                    -46.6626658808429,
                    -23.5559579861242
                ]
            },
            "properties": "Praça do Ciclista"
        },
        {
            "type": "Feature",
            "geometry": {
                "type": "Point",
                "coordinates": [
                    -46.659609825984,
                    -23.5584250062578
                ]
            },
            "properties": "Shopping Center 3"
        },
        {
            "type": "Feature",
            "geometry": {
                "type": "Point",
                "coordinates": [
                    -46.65819,
                    -23.56004
                ]
            },
            "properties": "Parque Prefeito Mário Covas"
        },
        {
            "type": "Feature",
            "geometry": {
                "type": "Point",
                "coordinates": [
                    -46.6737218412473,
                    -23.5354050849495
                ]
            },
            "properties": "João Ramalho"
        },
        {
            "type": "Feature",
            "geometry": {
                "type": "Point",
                "coordinates": [
                    -46.6742620549583,
                    -23.53826440252
                ]
            },
            "properties": "Caiubí"
        },
        {
            "type": "Feature",
            "geometry": {
                "type": "Point",
                "coordinates": [
                    -46.6523898406747,
                    -23.5645728749771
                ]
            },
            "properties": "Alameda Campinas"
        },
        {
            "type": "Feature",
            "geometry": {
                "type": "Point",
                "coordinates": [
                    -46.6504363824566,
                    -23.5662497091298
                ]
            },
            "properties": "Paulista 778"
        },
        {
            "type": "Feature",
            "geometry": {
                "type": "Point",
                "coordinates": [
                    -46.6486743523506,
                    -23.5681059122191
                ]
            },
            "properties": "Metrô Brigadeiro"
        },
        {
            "type": "Feature",
            "geometry": {
                "type": "Point",
                "coordinates": [
                    -46.6454074048945,
                    -23.5666631175994
                ]
            },
            "properties": "R. Carlos Sampaio"
        },
        {
            "type": "Feature",
            "geometry": {
                "type": "Point",
                "coordinates": [
                    -46.6489777696966,
                    -23.5681587220928
                ]
            },
            "properties": "R. Manoel da Nóbrega "
        },
        {
            "type": "Feature",
            "geometry": {
                "type": "Point",
                "coordinates": [
                    -46.6514144849816,
                    -23.5738230003483
                ]
            },
            "properties": "Tutóia"
        },
        {
            "type": "Feature",
            "geometry": {
                "type": "Point",
                "coordinates": [
                    -46.6763898266739,
                    -23.541413385853
                ]
            },
            "properties": "Praça Irmãos Karmam"
        },
        {
            "type": "Feature",
            "geometry": {
                "type": "Point",
                "coordinates": [
                    -46.6483984,
                    -23.5752978
                ]
            },
            "properties": "Sampaio Viana"
        },
        {
            "type": "Feature",
            "geometry": {
                "type": "Point",
                "coordinates": [
                    -46.6683997647917,
                    -23.5316825837021
                ]
            },
            "properties": "Parque da Água Branca"
        },
        {
            "type": "Feature",
            "geometry": {
                "type": "Point",
                "coordinates": [
                    -46.6458343207028,
                    -23.570439240226
                ]
            },
            "properties": "Itaú Cultural"
        },
        {
            "type": "Feature",
            "geometry": {
                "type": "Point",
                "coordinates": [
                    -46.6949615662523,
                    -23.6049435587906
                ]
            },
            "properties": "Praça Gen. Gentil Falcão"
        },
        {
            "type": "Feature",
            "geometry": {
                "type": "Point",
                "coordinates": [
                    -46.694953329576,
                    -23.6118685865358
                ]
            },
            "properties": "Rua James Watt"
        },
        {
            "type": "Feature",
            "geometry": {
                "type": "Point",
                "coordinates": [
                    -46.6944769361133,
                    -23.6089863999008
                ]
            },
            "properties": "Rua Hans Oersted"
        },
        {
            "type": "Feature",
            "geometry": {
                "type": "Point",
                "coordinates": [
                    -46.6921505751105,
                    -23.6023654922839
                ]
            },
            "properties": "Praça João Duran Alonso"
        },
        {
            "type": "Feature",
            "geometry": {
                "type": "Point",
                "coordinates": [
                    -46.6916217996544,
                    -23.6090278763808
                ]
            },
            "properties": "Rua Flórida"
        },
        {
            "type": "Feature",
            "geometry": {
                "type": "Point",
                "coordinates": [
                    -46.6883614489809,
                    -23.6076225615591
                ]
            },
            "properties": "Rua Indiana"
        },
        {
            "type": "Feature",
            "geometry": {
                "type": "Point",
                "coordinates": [
                    -46.6925864305815,
                    -23.6034624685839
                ]
            },
            "properties": "Praça Oswaldo Varella"
        },
        {
            "type": "Feature",
            "geometry": {
                "type": "Point",
                "coordinates": [
                    -46.6940207690703,
                    -23.6073571436751
                ]
            },
            "properties": "Flórida 1670"
        },
        {
            "type": "Feature",
            "geometry": {
                "type": "Point",
                "coordinates": [
                    -46.6957413582252,
                    -23.6121427531147
                ]
            },
            "properties": "R. Lee de Forest"
        },
        {
            "type": "Feature",
            "geometry": {
                "type": "Point",
                "coordinates": [
                    -46.6769891687778,
                    -23.6039010735058
                ]
            },
            "properties": "Rua Andrade Pertence"
        },
        {
            "type": "Feature",
            "geometry": {
                "type": "Point",
                "coordinates": [
                    -46.68170564666,
                    -23.6013159108738
                ]
            },
            "properties": "Rua Alvorada"
        },
        {
            "type": "Feature",
            "geometry": {
                "type": "Point",
                "coordinates": [
                    -46.6894766023497,
                    -23.6001574646657
                ]
            },
            "properties": "Praça Procópio Ferreira"
        },
        {
            "type": "Feature",
            "geometry": {
                "type": "Point",
                "coordinates": [
                    -46.6865907226439,
                    -23.5966593672495
                ]
            },
            "properties": "Cubo Itaú"
        },
        {
            "type": "Feature",
            "geometry": {
                "type": "Point",
                "coordinates": [
                    -46.6840348376308,
                    -23.5977973921346
                ]
            },
            "properties": "Rua Júlio Diniz"
        },
        {
            "type": "Feature",
            "geometry": {
                "type": "Point",
                "coordinates": [
                    -46.6804311376391,
                    -23.5970325358107
                ]
            },
            "properties": "Rua Quatá"
        },
        {
            "type": "Feature",
            "geometry": {
                "type": "Point",
                "coordinates": [
                    -46.6795527222334,
                    -23.5997736418236
                ]
            },
            "properties": "Rua Gomes de Carvalho"
        },
        {
            "type": "Feature",
            "geometry": {
                "type": "Point",
                "coordinates": [
                    -46.6776630781739,
                    -23.5978131886461
                ]
            },
            "properties": "Insper"
        },
        {
            "type": "Feature",
            "geometry": {
                "type": "Point",
                "coordinates": [
                    -46.6754248186942,
                    -23.6006795981776
                ]
            },
            "properties": "Baluarte"
        },
        {
            "type": "Feature",
            "geometry": {
                "type": "Point",
                "coordinates": [
                    -46.6749451529719,
                    -23.5948089866643
                ]
            },
            "properties": "R. Santa Justina"
        },
        {
            "type": "Feature",
            "geometry": {
                "type": "Point",
                "coordinates": [
                    -46.6692773588711,
                    -23.5940306200704
                ]
            },
            "properties": "Praça Pereira Coutinho"
        },
        {
            "type": "Feature",
            "geometry": {
                "type": "Point",
                "coordinates": [
                    -46.6716583619071,
                    -23.5972296670023
                ]
            },
            "properties": "Natividade"
        },
        {
            "type": "Feature",
            "geometry": {
                "type": "Point",
                "coordinates": [
                    -46.6711916347834,
                    -23.6013401704407
                ]
            },
            "properties": "Graúna"
        },
        {
            "type": "Feature",
            "geometry": {
                "type": "Point",
                "coordinates": [
                    -46.668921020279,
                    -23.600369824627
                ]
            },
            "properties": "Jacutinga"
        },
        {
            "type": "Feature",
            "geometry": {
                "type": "Point",
                "coordinates": [
                    -46.6665456773041,
                    -23.596549642468
                ]
            },
            "properties": "R. Sampaio Góis"
        },
        {
            "type": "Feature",
            "geometry": {
                "type": "Point",
                "coordinates": [
                    -46.6638,
                    -23.6033
                ]
            },
            "properties": "Praça do Pombo"
        },
        {
            "type": "Feature",
            "geometry": {
                "type": "Point",
                "coordinates": [
                    -46.6641781648402,
                    -23.5958920911892
                ]
            },
            "properties": "Afonso Braz"
        },
        {
            "type": "Feature",
            "geometry": {
                "type": "Point",
                "coordinates": [
                    -46.659362734414,
                    -23.5934574009144
                ]
            },
            "properties": "Ibirapuera Portão 06"
        },
        {
            "type": "Feature",
            "geometry": {
                "type": "Point",
                "coordinates": [
                    -46.6553996394387,
                    -23.5921163886911
                ]
            },
            "properties": "Ibirapuera Portão 05"
        },
        {
            "type": "Feature",
            "geometry": {
                "type": "Point",
                "coordinates": [
                    -46.654976517583,
                    -23.5946168877796
                ]
            },
            "properties": "Largo Mestre de Aviz"
        },
        {
            "type": "Feature",
            "geometry": {
                "type": "Point",
                "coordinates": [
                    -46.6573748820272,
                    -23.5820532321531
                ]
            },
            "properties": "Ibirapuera Portão 10"
        },
        {
            "type": "Feature",
            "geometry": {
                "type": "Point",
                "coordinates": [
                    -46.6800723302731,
                    -23.5936014851943
                ]
            },
            "properties": "Chilon"
        },
        {
            "type": "Feature",
            "geometry": {
                "type": "Point",
                "coordinates": [
                    -46.688863187992,
                    -23.590748349533
                ]
            },
            "properties": "JK Iguatemi"
        },
        {
            "type": "Feature",
            "geometry": {
                "type": "Point",
                "coordinates": [
                    -46.6838868603995,
                    -23.5827091295632
                ]
            },
            "properties": "Praça Luis Carlos Paraná"
        },
        {
            "type": "Feature",
            "geometry": {
                "type": "Point",
                "coordinates": [
                    -46.6591867859776,
                    -23.5317430614974
                ]
            },
            "properties": "Minhocão"
        },
        {
            "type": "Feature",
            "geometry": {
                "type": "Point",
                "coordinates": [
                    -46.6779598577902,
                    -23.5841082600817
                ]
            },
            "properties": "Rua João Cachoeira"
        },
        {
            "type": "Feature",
            "geometry": {
                "type": "Point",
                "coordinates": [
                    -46.6810655326171,
                    -23.5870546520685
                ]
            },
            "properties": "Rua Iguatemi"
        },
        {
            "type": "Feature",
            "geometry": {
                "type": "Point",
                "coordinates": [
                    -46.6962601886354,
                    -23.6049719308606
                ]
            },
            "properties": "CPTM Berrini"
        },
        {
            "type": "Feature",
            "geometry": {
                "type": "Point",
                "coordinates": [
                    -46.6527868201291,
                    -23.5890430938806
                ]
            },
            "properties": "Ibirapuera Portão 03"
        },
        {
            "type": "Feature",
            "geometry": {
                "type": "Point",
                "coordinates": [
                    -46.6442442465325,
                    -23.5751852010033
                ]
            },
            "properties": "Rua Afonso de Freitas"
        },
        {
            "type": "Feature",
            "geometry": {
                "type": "Point",
                "coordinates": [
                    -46.6415215997509,
                    -23.5749909630878
                ]
            },
            "properties": "Metrô Paraíso"
        },
        {
            "type": "Feature",
            "geometry": {
                "type": "Point",
                "coordinates": [
                    -46.6399782950921,
                    -23.5697804473938
                ]
            },
            "properties": "Centro Cultural SP"
        },
        {
            "type": "Feature",
            "geometry": {
                "type": "Point",
                "coordinates": [
                    -46.6422656825963,
                    -23.5604966383472
                ]
            },
            "properties": "Monsenhor Passaláqua"
        },
        {
            "type": "Feature",
            "geometry": {
                "type": "Point",
                "coordinates": [
                    -46.6397155073801,
                    -23.5578839112131
                ]
            },
            "properties": "R. Condessa de São Joaquim"
        },
        {
            "type": "Feature",
            "geometry": {
                "type": "Point",
                "coordinates": [
                    -46.6469450459497,
                    -23.5626885921653
                ]
            },
            "properties": "Rua dos Belgas"
        },
        {
            "type": "Feature",
            "geometry": {
                "type": "Point",
                "coordinates": [
                    -46.64540098,
                    -23.55988804
                ]
            },
            "properties": "Praça Dom Orione"
        },
        {
            "type": "Feature",
            "geometry": {
                "type": "Point",
                "coordinates": [
                    -46.6517,
                    -23.5601
                ]
            },
            "properties": "Alameda Rio Claro"
        },
        {
            "type": "Feature",
            "geometry": {
                "type": "Point",
                "coordinates": [
                    -46.6385861918078,
                    -23.5633565983964
                ]
            },
            "properties": "Metrô São Joaquim"
        },
        {
            "type": "Feature",
            "geometry": {
                "type": "Point",
                "coordinates": [
                    -46.6520335101847,
                    -23.5550645493143
                ]
            },
            "properties": "Herculano de Freitas"
        },
        {
            "type": "Feature",
            "geometry": {
                "type": "Point",
                "coordinates": [
                    -46.6510376596248,
                    -23.5530167175194
                ]
            },
            "properties": "Paim"
        },
        {
            "type": "Feature",
            "geometry": {
                "type": "Point",
                "coordinates": [
                    -46.6568015417804,
                    -23.5520481655859
                ]
            },
            "properties": "Cemitério Consolação"
        },
        {
            "type": "Feature",
            "geometry": {
                "type": "Point",
                "coordinates": [
                    -46.6471562050592,
                    -23.5485777016467
                ]
            },
            "properties": "Praça Roosevelt"
        },
        {
            "type": "Feature",
            "geometry": {
                "type": "Point",
                "coordinates": [
                    -46.6423831739113,
                    -23.552657354472
                ]
            },
            "properties": "Rua São Domingos"
        },
        {
            "type": "Feature",
            "geometry": {
                "type": "Point",
                "coordinates": [
                    -46.63565212,
                    -23.55507044
                ]
            },
            "properties": "Praça da Liberdade"
        },
        {
            "type": "Feature",
            "geometry": {
                "type": "Point",
                "coordinates": [
                    -46.63454504,
                    -23.54402567
                ]
            },
            "properties": "Largo de São Bento"
        },
        {
            "type": "Feature",
            "geometry": {
                "type": "Point",
                "coordinates": [
                    -46.6370206402818,
                    -23.5491978637596
                ]
            },
            "properties": "Largo São Francisco"
        },
        {
            "type": "Feature",
            "geometry": {
                "type": "Point",
                "coordinates": [
                    -46.6579877600663,
                    -23.5579898497291
                ]
            },
            "properties": "R. Luis Coelho"
        },
        {
            "type": "Feature",
            "geometry": {
                "type": "Point",
                "coordinates": [
                    -46.6406185501522,
                    -23.547640346185
                ]
            },
            "properties": "R. Cel. Xavier de Toledo"
        },
        {
            "type": "Feature",
            "geometry": {
                "type": "Point",
                "coordinates": [
                    -46.6395339948596,
                    -23.5428158801363
                ]
            },
            "properties": "Av. São João"
        },
        {
            "type": "Feature",
            "geometry": {
                "type": "Point",
                "coordinates": [
                    -46.6432462652324,
                    -23.5456630543638
                ]
            },
            "properties": "Av. São Luís"
        },
        {
            "type": "Feature",
            "geometry": {
                "type": "Point",
                "coordinates": [
                    -46.6498022180738,
                    -23.5398674287039
                ]
            },
            "properties": "Metrô Santa Cecília"
        },
        {
            "type": "Feature",
            "geometry": {
                "type": "Point",
                "coordinates": [
                    -46.651718320821,
                    -23.545324819388
                ]
            },
            "properties": "Mackenzie"
        },
        {
            "type": "Feature",
            "geometry": {
                "type": "Point",
                "coordinates": [
                    -46.6553462309905,
                    -23.5488591214319
                ]
            },
            "properties": "Itambé"
        },
        {
            "type": "Feature",
            "geometry": {
                "type": "Point",
                "coordinates": [
                    -46.6570562938632,
                    -23.5456065509866
                ]
            },
            "properties": "Parque Buenos Aires"
        },
        {
            "type": "Feature",
            "geometry": {
                "type": "Point",
                "coordinates": [
                    -46.6904882733558,
                    -23.5706120024434
                ]
            },
            "properties": "CEMG Faria Lima"
        },
        {
            "type": "Feature",
            "geometry": {
                "type": "Point",
                "coordinates": [
                    -46.6606310404426,
                    -23.543490788406
                ]
            },
            "properties": "Pernambuco"
        },
        {
            "type": "Feature",
            "geometry": {
                "type": "Point",
                "coordinates": [
                    -46.7080343523465,
                    -23.569908843225
                ]
            },
            "properties": "Praça Monte Castelo"
        },
        {
            "type": "Feature",
            "geometry": {
                "type": "Point",
                "coordinates": [
                    -46.6555547195509,
                    -23.5415334086621
                ]
            },
            "properties": "Jaguaribe"
        },
        {
            "type": "Feature",
            "geometry": {
                "type": "Point",
                "coordinates": [
                    -46.6541473967476,
                    -23.5369791042457
                ]
            },
            "properties": "Alameda Barros"
        },
        {
            "type": "Feature",
            "geometry": {
                "type": "Point",
                "coordinates": [
                    -46.6579044578009,
                    -23.5390004148871
                ]
            },
            "properties": "Albuquerque Lins"
        },
        {
            "type": "Feature",
            "geometry": {
                "type": "Point",
                "coordinates": [
                    -46.656765280581,
                    -23.5358897652191
                ]
            },
            "properties": "Marechal Deodoro"
        },
        {
            "type": "Feature",
            "geometry": {
                "type": "Point",
                "coordinates": [
                    -46.660190374256,
                    -23.5351173339965
                ]
            },
            "properties": "Conselheiro Brotero"
        },
        {
            "type": "Feature",
            "geometry": {
                "type": "Point",
                "coordinates": [
                    -46.6781700464487,
                    -23.5515095992215
                ]
            },
            "properties": "Metrô Sumaré"
        },
        {
            "type": "Feature",
            "geometry": {
                "type": "Point",
                "coordinates": [
                    -46.66469,
                    -23.55753
                ]
            },
            "properties": "Consolação"
        },
        {
            "type": "Feature",
            "geometry": {
                "type": "Point",
                "coordinates": [
                    -46.6661513892479,
                    -23.5580398903081
                ]
            },
            "properties": "Alameda Itú 1571"
        },
        {
            "type": "Feature",
            "geometry": {
                "type": "Point",
                "coordinates": [
                    -4666764.0,
                    -23.56032
                ]
            },
            "properties": "Alameda Tietê"
        },
        {
            "type": "Feature",
            "geometry": {
                "type": "Point",
                "coordinates": [
                    -46.66805,
                    -23.56226
                ]
            },
            "properties": "Bela Cintra"
        },
        {
            "type": "Feature",
            "geometry": {
                "type": "Point",
                "coordinates": [
                    -46.67026626,
                    -23.55991951
                ]
            },
            "properties": "Alameda Lorena"
        },
        {
            "type": "Feature",
            "geometry": {
                "type": "Point",
                "coordinates": [
                    -46.6732,
                    -23.5608
                ]
            },
            "properties": "Rua Capote Valente"
        },
        {
            "type": "Feature",
            "geometry": {
                "type": "Point",
                "coordinates": [
                    -46.6730138229932,
                    -23.5633581560803
                ]
            },
            "properties": "Rua Estados Unidos"
        },
        {
            "type": "Feature",
            "geometry": {
                "type": "Point",
                "coordinates": [
                    -46.6784556405711,
                    -23.5594417332263
                ]
            },
            "properties": "E.E. Godofredo Furtado"
        },
        {
            "type": "Feature",
            "geometry": {
                "type": "Point",
                "coordinates": [
                    -46.6765358521077,
                    -23.5621418901363
                ]
            },
            "properties": "João Moura 328"
        },
        {
            "type": "Feature",
            "geometry": {
                "type": "Point",
                "coordinates": [
                    -46.6766107743796,
                    -23.5651645970985
                ]
            },
            "properties": "Alameda Gabriel"
        },
        {
            "type": "Feature",
            "geometry": {
                "type": "Point",
                "coordinates": [
                    -46.6827775153217,
                    -23.5625602390326
                ]
            },
            "properties": "R. Joaquim Antunes"
        },
        {
            "type": "Feature",
            "geometry": {
                "type": "Point",
                "coordinates": [
                    -46.6798554933234,
                    -23.5643368077145
                ]
            },
            "properties": "R. dos Pinheiros"
        },
        {
            "type": "Feature",
            "geometry": {
                "type": "Point",
                "coordinates": [
                    -46.6871313395988,
                    -23.5587392337508
                ]
            },
            "properties": "Rua Horácio Lane"
        },
        {
            "type": "Feature",
            "geometry": {
                "type": "Point",
                "coordinates": [
                    -46.6871566756018,
                    -23.5620789029004
                ]
            },
            "properties": "Fradique Coutinho 558"
        },
        {
            "type": "Feature",
            "geometry": {
                "type": "Point",
                "coordinates": [
                    -46.6848831891663,
                    -23.5655318803865
                ]
            },
            "properties": "Metrô Fradique Coutinho"
        },
        {
            "type": "Feature",
            "geometry": {
                "type": "Point",
                "coordinates": [
                    -46.6841990407743,
                    -23.5687716945858
                ]
            },
            "properties": "Sampaio Vidal 530"
        },
        {
            "type": "Feature",
            "geometry": {
                "type": "Point",
                "coordinates": [
                    -46.6908515920839,
                    -23.5610082884253
                ]
            },
            "properties": "R. Simão Álvares"
        },
        {
            "type": "Feature",
            "geometry": {
                "type": "Point",
                "coordinates": [
                    -46.6876470783052,
                    -23.5661229934209
                ]
            },
            "properties": "R. Artur de Azevedo"
        },
        {
            "type": "Feature",
            "geometry": {
                "type": "Point",
                "coordinates": [
                    -46.6864501541007,
                    -23.570130111217
                ]
            },
            "properties": "R. Mariana Correia"
        },
        {
            "type": "Feature",
            "geometry": {
                "type": "Point",
                "coordinates": [
                    -46.6953706304033,
                    -23.5614126775109
                ]
            },
            "properties": "Instituto Tomie Ohtake"
        },
        {
            "type": "Feature",
            "geometry": {
                "type": "Point",
                "coordinates": [
                    -46.695663653168,
                    -23.5652988887731
                ]
            },
            "properties": "Rua Sumidouro"
        },
        {
            "type": "Feature",
            "geometry": {
                "type": "Point",
                "coordinates": [
                    -46.699386022988,
                    -23.5587771000465
                ]
            },
            "properties": "Praça Roquete Pinto"
        },
        {
            "type": "Feature",
            "geometry": {
                "type": "Point",
                "coordinates": [
                    -46.69823431,
                    -23.57306366
                ]
            },
            "properties": "CPTM Hebraica-Rebouças"
        },
        {
            "type": "Feature",
            "geometry": {
                "type": "Point",
                "coordinates": [
                    -46.7020264210411,
                    -23.5567956481546
                ]
            },
            "properties": "Praça Ernâni Braga"
        },
        {
            "type": "Feature",
            "geometry": {
                "type": "Point",
                "coordinates": [
                    -46.69622889,
                    -23.55435409
                ]
            },
            "properties": "BNH Vila Madalena"
        },
        {
            "type": "Feature",
            "geometry": {
                "type": "Point",
                "coordinates": [
                    -46.7054156711198,
                    -23.5553785015848
                ]
            },
            "properties": "Av. dos Semaneiros"
        },
        {
            "type": "Feature",
            "geometry": {
                "type": "Point",
                "coordinates": [
                    -46.707987125315,
                    -23.5541789045117
                ]
            },
            "properties": "Praça Panamericana"
        },
        {
            "type": "Feature",
            "geometry": {
                "type": "Point",
                "coordinates": [
                    -46.7109312356492,
                    -23.5567967829597
                ]
            },
            "properties": "CPTM Cidade Universitária"
        },
        {
            "type": "Feature",
            "geometry": {
                "type": "Point",
                "coordinates": [
                    -46.7261720365212,
                    -23.5626317229985
                ]
            },
            "properties": "Letras"
        },
        {
            "type": "Feature",
            "geometry": {
                "type": "Point",
                "coordinates": [
                    -46.72710617306,
                    -23.5599272394511
                ]
            },
            "properties": "Bancos/Reitoria"
        },
        {
            "type": "Feature",
            "geometry": {
                "type": "Point",
                "coordinates": [
                    -46.707937,
                    -23.570593
                ]
            },
            "properties": "Metrô Butantã"
        },
        {
            "type": "Feature",
            "geometry": {
                "type": "Point",
                "coordinates": [
                    -46.7129912900556,
                    -23.5654280569129
                ]
            },
            "properties": "P1"
        },
        {
            "type": "Feature",
            "geometry": {
                "type": "Point",
                "coordinates": [
                    -46.7131577012467,
                    -23.5601005487719
                ]
            },
            "properties": "Portão CPTM"
        },
        {
            "type": "Feature",
            "geometry": {
                "type": "Point",
                "coordinates": [
                    -46.7175716449639,
                    -23.562020824986
                ]
            },
            "properties": "CEPE"
        },
        {
            "type": "Feature",
            "geometry": {
                "type": "Point",
                "coordinates": [
                    -46.722825563147,
                    -23.5625149269804
                ]
            },
            "properties": "Biblioteca Brasiliana"
        },
        {
            "type": "Feature",
            "geometry": {
                "type": "Point",
                "coordinates": [
                    -46.7216596885791,
                    -23.5607214061912
                ]
            },
            "properties": "Bandejão Central"
        },
        {
            "type": "Feature",
            "geometry": {
                "type": "Point",
                "coordinates": [
                    -46.7243420069367,
                    -23.5650987972422
                ]
            },
            "properties": "Bandejão Química"
        },
        {
            "type": "Feature",
            "geometry": {
                "type": "Point",
                "coordinates": [
                    -46.7291586728517,
                    -23.559293584318
                ]
            },
            "properties": "FAU"
        },
        {
            "type": "Feature",
            "geometry": {
                "type": "Point",
                "coordinates": [
                    -46.7241492890766,
                    -23.5551999484936
                ]
            },
            "properties": "Psicologia"
        },
        {
            "type": "Feature",
            "geometry": {
                "type": "Point",
                "coordinates": [
                    -46.7322053771584,
                    -23.5560950313374
                ]
            },
            "properties": "Pedalusp Biênio"
        },
        {
            "type": "Feature",
            "geometry": {
                "type": "Point",
                "coordinates": [
                    -46.7322243615549,
                    -23.5528308718055
                ]
            },
            "properties": "Terminal de Ônibus USP"
        },
        {
            "type": "Feature",
            "geometry": {
                "type": "Point",
                "coordinates": [
                    -46.7356926767203,
                    -23.5606860577466
                ]
            },
            "properties": "Bandejão Física"
        },
        {
            "type": "Feature",
            "geometry": {
                "type": "Point",
                "coordinates": [
                    -46.7398201170462,
                    -23.5597355337842
                ]
            },
            "properties": "Bandejão Prefeitura"
        },
        {
            "type": "Feature",
            "geometry": {
                "type": "Point",
                "coordinates": [
                    -46.7415201080188,
                    -23.563675157567
                ]
            },
            "properties": "Hospital Universitário"
        },
        {
            "type": "Feature",
            "geometry": {
                "type": "Point",
                "coordinates": [
                    -46.7377390474673,
                    -23.5670983269173
                ]
            },
            "properties": "Odontologia"
        },
        {
            "type": "Feature",
            "geometry": {
                "type": "Point",
                "coordinates": [
                    -46.7318266369691,
                    -23.5685409711413
                ]
            },
            "properties": "Vila Indiana"
        },
        {
            "type": "Feature",
            "geometry": {
                "type": "Point",
                "coordinates": [
                    -46.7407149326958,
                    -23.5682352949967
                ]
            },
            "properties": "P3"
        },
        {
            "type": "Feature",
            "geometry": {
                "type": "Point",
                "coordinates": [
                    -46.7118416376449,
                    -23.5510667054953
                ]
            },
            "properties": "Praça Pero Vaz de Caminha"
        },
        {
            "type": "Feature",
            "geometry": {
                "type": "Point",
                "coordinates": [
                    -46.7175712669578,
                    -23.5501563898634
                ]
            },
            "properties": "Colégio Santa Cruz"
        },
        {
            "type": "Feature",
            "geometry": {
                "type": "Point",
                "coordinates": [
                    -46.7162932669707,
                    -23.5470791934803
                ]
            },
            "properties": "Praça Beethoven"
        },
        {
            "type": "Feature",
            "geometry": {
                "type": "Point",
                "coordinates": [
                    -46.7256937404967,
                    -23.5435015914936
                ]
            },
            "properties": "Parque Villa Lobos Portão 2"
        },
        {
            "type": "Feature",
            "geometry": {
                "type": "Point",
                "coordinates": [
                    -46.7324399933472,
                    -23.5456078360021
                ]
            },
            "properties": "CPTM Villa Lobos Jaguaré"
        },
        {
            "type": "Feature",
            "geometry": {
                "type": "Point",
                "coordinates": [
                    -46.6515349965968,
                    -23.5636823643587
                ]
            },
            "properties": "Hotel Maksoud Plaza"
        },
        {
            "type": "Feature",
            "geometry": {
                "type": "Point",
                "coordinates": [
                    -46.6780573829128,
                    -23.5645330138706
                ]
            },
            "properties": "Praça Portugal"
        },
        {
            "type": "Feature",
            "geometry": {
                "type": "Point",
                "coordinates": [
                    -46.6700667219887,
                    -23.6232726724509
                ]
            },
            "properties": "R. República do Iraque"
        },
        {
            "type": "Feature",
            "geometry": {
                "type": "Point",
                "coordinates": [
                    -46.6940557491764,
                    -23.6017705716527
                ]
            },
            "properties": "Hotel Transamérica Berrini"
        },
        {
            "type": "Feature",
            "geometry": {
                "type": "Point",
                "coordinates": [
                    -46.6809327504227,
                    -23.5929529353691
                ]
            },
            "properties": "Rua Cel. Joaquim Ferreira Lobo"
        },
        {
            "type": "Feature",
            "geometry": {
                "type": "Point",
                "coordinates": [
                    -46.6797749451992,
                    -23.592639676926
                ]
            },
            "properties": "Rua Cel. Joaquim Ferreira Lobo II"
        },
        {
            "type": "Feature",
            "geometry": {
                "type": "Point",
                "coordinates": [
                    -46.64896706,
                    -23.54477907
                ]
            },
            "properties": "Cunha Horta"
        },
        {
            "type": "Feature",
            "geometry": {
                "type": "Point",
                "coordinates": [
                    -46.6650673803783,
                    -23.5339723559402
                ]
            },
            "properties": "Turiassu"
        },
        {
            "type": "Feature",
            "geometry": {
                "type": "Point",
                "coordinates": [
                    -46.6630801969376,
                    -23.5312748251908
                ]
            },
            "properties": "Largo Padre Péricles"
        },
        {
            "type": "Feature",
            "geometry": {
                "type": "Point",
                "coordinates": [
                    -46.657056,
                    -23.5337422
                ]
            },
            "properties": "Metrô Marechal Deodoro"
        },
        {
            "type": "Feature",
            "geometry": {
                "type": "Point",
                "coordinates": [
                    -46.640856930462,
                    -23.5789116092428
                ]
            },
            "properties": "Rua Domingos de Moraes"
        },
        {
            "type": "Feature",
            "geometry": {
                "type": "Point",
                "coordinates": [
                    -46.6377561803736,
                    -23.5808426571183
                ]
            },
            "properties": "Metrô Ana Rosa"
        },
        {
            "type": "Feature",
            "geometry": {
                "type": "Point",
                "coordinates": [
                    -46.6364894393958,
                    -23.5844511087101
                ]
            },
            "properties": "Vergueiro"
        },
        {
            "type": "Feature",
            "geometry": {
                "type": "Point",
                "coordinates": [
                    -46.6389882042411,
                    -23.5808723459433
                ]
            },
            "properties": "Largo Ana Rosa"
        },
        {
            "type": "Feature",
            "geometry": {
                "type": "Point",
                "coordinates": [
                    -46.6428930721909,
                    -23.5819406080888
                ]
            },
            "properties": "SESC Vila Mariana"
        },
        {
            "type": "Feature",
            "geometry": {
                "type": "Point",
                "coordinates": [
                    -46.6491158963983,
                    -23.5909147225444
                ]
            },
            "properties": "R. França Pinto"
        },
        {
            "type": "Feature",
            "geometry": {
                "type": "Point",
                "coordinates": [
                    -46.6432336771114,
                    -23.5871298485912
                ]
            },
            "properties": "Rio Grande"
        },
        {
            "type": "Feature",
            "geometry": {
                "type": "Point",
                "coordinates": [
                    -46.6422240650602,
                    -23.5918790017162
                ]
            },
            "properties": "Gandavo"
        },
        {
            "type": "Feature",
            "geometry": {
                "type": "Point",
                "coordinates": [
                    -46.639732508207,
                    -23.5894563363639
                ]
            },
            "properties": "MUBA"
        },
        {
            "type": "Feature",
            "geometry": {
                "type": "Point",
                "coordinates": [
                    -46.6350854815602,
                    -23.5898021306398
                ]
            },
            "properties": "Metrô Vila Mariana"
        },
        {
            "type": "Feature",
            "geometry": {
                "type": "Point",
                "coordinates": [
                    -46.6376374921996,
                    -23.5950450453396
                ]
            },
            "properties": "Rua Cunha"
        },
        {
            "type": "Feature",
            "geometry": {
                "type": "Point",
                "coordinates": [
                    -46.6369958975112,
                    -23.6042263595434
                ]
            },
            "properties": "Luis Góis"
        },
        {
            "type": "Feature",
            "geometry": {
                "type": "Point",
                "coordinates": [
                    -46.6577541150754,
                    -23.6005561179321
                ]
            },
            "properties": "Parque das Bicicletas"
        },
        {
            "type": "Feature",
            "geometry": {
                "type": "Point",
                "coordinates": [
                    -46.6527798263341,
                    -23.5976149401058
                ]
            },
            "properties": "METRÔ AACD SERVIDOR"
        },
        {
            "type": "Feature",
            "geometry": {
                "type": "Point",
                "coordinates": [
                    -46.6469924961933,
                    -23.5981107484271
                ]
            },
            "properties": "Metrô Hospital São Paulo"
        },
        {
            "type": "Feature",
            "geometry": {
                "type": "Point",
                "coordinates": [
                    -46.6379744781465,
                    -23.6068678445822
                ]
            },
            "properties": "Alameda das Boninas"
        },
        {
            "type": "Feature",
            "geometry": {
                "type": "Point",
                "coordinates": [
                    -46.6391030550847,
                    -23.5987326403293
                ]
            },
            "properties": "R. Leonardo Nunes"
        },
        {
            "type": "Feature",
            "geometry": {
                "type": "Point",
                "coordinates": [
                    -46.6616847898962,
                    -23.6037621017182
                ]
            },
            "properties": "Metrô Moema"
        },
        {
            "type": "Feature",
            "geometry": {
                "type": "Point",
                "coordinates": [
                    -46.66336616,
                    -23.60660832
                ]
            },
            "properties": "Jandira"
        },
        {
            "type": "Feature",
            "geometry": {
                "type": "Point",
                "coordinates": [
                    -46.6676509366036,
                    -23.6035135859775
                ]
            },
            "properties": "Gaivota"
        },
        {
            "type": "Feature",
            "geometry": {
                "type": "Point",
                "coordinates": [
                    -46.6681444400963,
                    -23.609452586953
                ]
            },
            "properties": "Metrô Eucaliptos"
        },
        {
            "type": "Feature",
            "geometry": {
                "type": "Point",
                "coordinates": [
                    -46.6679390776675,
                    -23.6057036854932
                ]
            },
            "properties": "Jauaperi"
        },
        {
            "type": "Feature",
            "geometry": {
                "type": "Point",
                "coordinates": [
                    -46.6742727797395,
                    -23.6042556584336
                ]
            },
            "properties": "Pintassilgo"
        },
        {
            "type": "Feature",
            "geometry": {
                "type": "Point",
                "coordinates": [
                    -46.6773097716024,
                    -23.6135042882545
                ]
            },
            "properties": "R. Demóstenes"
        },
        {
            "type": "Feature",
            "geometry": {
                "type": "Point",
                "coordinates": [
                    -46.6804598847155,
                    -23.6107351221245
                ]
            },
            "properties": "Rua Nova York"
        },
        {
            "type": "Feature",
            "geometry": {
                "type": "Point",
                "coordinates": [
                    -46.6813978502872,
                    -23.6170138247081
                ]
            },
            "properties": "Rua Flórida 53"
        },
        {
            "type": "Feature",
            "geometry": {
                "type": "Point",
                "coordinates": [
                    -46.6832068389874,
                    -23.6129704331121
                ]
            },
            "properties": "R. Pe. Antônio"
        },
        {
            "type": "Feature",
            "geometry": {
                "type": "Point",
                "coordinates": [
                    -46.6859131865383,
                    -23.6106846259976
                ]
            },
            "properties": "R. Ribeiro do Vale"
        },
        {
            "type": "Feature",
            "geometry": {
                "type": "Point",
                "coordinates": [
                    -46.6889117358413,
                    -23.6110922047536
                ]
            },
            "properties": "Flórida 1020"
        },
        {
            "type": "Feature",
            "geometry": {
                "type": "Point",
                "coordinates": [
                    -46.6839186756531,
                    -23.6188143994929
                ]
            },
            "properties": "R. Min. Luiz Gallotti"
        },
        {
            "type": "Feature",
            "geometry": {
                "type": "Point",
                "coordinates": [
                    -46.6869891386348,
                    -23.6240902348926
                ]
            },
            "properties": "Pássaros e Flores"
        },
        {
            "type": "Feature",
            "geometry": {
                "type": "Point",
                "coordinates": [
                    -46.7005347626514,
                    -23.6235674733867
                ]
            },
            "properties": "Rochaverá"
        },
        {
            "type": "Feature",
            "geometry": {
                "type": "Point",
                "coordinates": [
                    -46.6965638090644,
                    -23.6194058975209
                ]
            },
            "properties": "R. Henrique Fischer"
        },
        {
            "type": "Feature",
            "geometry": {
                "type": "Point",
                "coordinates": [
                    -46.6947383990985,
                    -23.6213921603005
                ]
            },
            "properties": "Bacaetava"
        },
        {
            "type": "Feature",
            "geometry": {
                "type": "Point",
                "coordinates": [
                    -46.6875731165835,
                    -23.6268943468695
                ]
            },
            "properties": "Metrô Brooklin"
        },
        {
            "type": "Feature",
            "geometry": {
                "type": "Point",
                "coordinates": [
                    -46.6442662143517,
                    -23.5716043779296
                ]
            },
            "properties": "Praça Oswaldo Cruz"
        },
        {
            "type": "Feature",
            "geometry": {
                "type": "Point",
                "coordinates": [
                    -46.6465303687604,
                    -23.5727122052325
                ]
            },
            "properties": "R. Dr. Rafael de Barros"
        },
        {
            "type": "Feature",
            "geometry": {
                "type": "Point",
                "coordinates": [
                    -46.722562508944,
                    -23.5516652847067
                ]
            },
            "properties": "Shopping Villa Lobos"
        },
        {
            "type": "Feature",
            "geometry": {
                "type": "Point",
                "coordinates": [
                    -46.69641184041,
                    -23.6099798374046
                ]
            },
            "properties": "CENU"
        }
    ]
}