{
  "type": "FeatureCollection",
  "features": [
    {
      "type": "Feature",
      "geometry": {
        "type": "Point",
        "coordinates": [
          -46.6937412022694,
          -23.5668309564147
        ]
      },
      "properties": {
        "name": "1 - Largo da Batata",
        "id": 1,
        "original_name": "Largo da Batata",
        "station_id": 1,
        "station": "1 - Largo da Batata"
      }
    },
    {
      "type": "Feature",
      "geometry": {
        "type": "Point",
        "coordinates": [
          -46.69819,
          -23.56692
        ]
      },
      "properties": {
        "name": "2 - SESC Pinheiros",
        "id": 2,
        "original_name": "SESC Pinheiros",
        "station_id": 2,
        "station": "2 - SESC Pinheiros"
      }
    },
    {
      "type": "Feature",
      "geometry": {
        "type": "Point",
        "coordinates": [
          -46.7012582819428,
          -23.5664776214954
        ]
      },
      "properties": {
        "name": "3 - CPTM Pinheiros",
        "id": 3,
        "original_name": "CPTM Pinheiros",
        "station_id": 3,
        "station": "3 - CPTM Pinheiros"
      }
    },
    {
      "type": "Feature",
      "geometry": {
        "type": "Point",
        "coordinates": [
          -46.6920025786078,
          -23.5691446194095
        ]
      },
      "properties": {
        "name": "4 - Rua Diogo Moreira",
        "id": 4,
        "original_name": "Rua Diogo Moreira",
        "station_id": 4,
        "station": "4 - Rua Diogo Moreira"
      }
    },
    {
      "type": "Feature",
      "geometry": {
        "type": "Point",
        "coordinates": [
          -46.6978971886828,
          -23.5698942495294
        ]
      },
      "properties": {
        "name": "5 - Chicão Vive",
        "id": 5,
        "original_name": "Chicão Vive",
        "station_id": 5,
        "station": "5 - Chicão Vive"
      }
    },
    {
      "type": "Feature",
      "geometry": {
        "type": "Point",
        "coordinates": [
          -46.6901067804038,
          -23.5721366373874
        ]
      },
      "properties": {
        "name": "6 - Rua Manduri",
        "id": 6,
        "original_name": "Rua Manduri",
        "station_id": 6,
        "station": "6 - Rua Manduri"
      }
    },
    {
      "type": "Feature",
      "geometry": {
        "type": "Point",
        "coordinates": [
          -46.6936810045059,
          -23.5725441757412
        ]
      },
      "properties": {
        "name": "7 - Praça Joaquim Roberto",
        "id": 7,
        "original_name": "Praça Joaquim Roberto",
        "station_id": 7,
        "station": "7 - Praça Joaquim Roberto"
      }
    },
    {
      "type": "Feature",
      "geometry": {
        "type": "Point",
        "coordinates": [
          -46.6873608611159,
          -23.575610896422
        ]
      },
      "properties": {
        "name": "9 - Rua Grécia",
        "id": 9,
        "original_name": "Rua Grécia",
        "station_id": 9,
        "station": "9 - Rua Grécia"
      }
    },
    {
      "type": "Feature",
      "geometry": {
        "type": "Point",
        "coordinates": [
          -46.6893026745285,
          -23.5746792860054
        ]
      },
      "properties": {
        "name": "10 - Rua Campo Verde",
        "id": 10,
        "original_name": "Rua Campo Verde",
        "station_id": 10,
        "station": "10 - Rua Campo Verde"
      }
    },
    {
      "type": "Feature",
      "geometry": {
        "type": "Point",
        "coordinates": [
          -46.6942387102708,
          -23.5655687544014
        ]
      },
      "properties": {
        "name": "11 - Praça Faria Lima",
        "id": 11,
        "original_name": "Praça Faria Lima",
        "station_id": 11,
        "station": "11 - Praça Faria Lima"
      }
    },
    {
      "type": "Feature",
      "geometry": {
        "type": "Point",
        "coordinates": [
          -46.6939591666242,
          -23.5661641536793
        ]
      },
      "properties": {
        "name": "12 - Largo da Batata II",
        "id": 12,
        "original_name": "Largo da Batata II",
        "station_id": 12,
        "station": "12 - Largo da Batata II"
      }
    },
    {
      "type": "Feature",
      "geometry": {
        "type": "Point",
        "coordinates": [
          -46.6906372471165,
          -23.5795958800921
        ]
      },
      "properties": {
        "name": "13 - Esporte Clube Pinheiros Funcionários",
        "id": 13,
        "original_name": "Esporte Clube Pinheiros Funcionários",
        "station_id": 13,
        "station": "13 - Esporte Clube Pinheiros Funcionários"
      }
    },
    {
      "type": "Feature",
      "geometry": {
        "type": "Point",
        "coordinates": [
          -46.6847086015679,
          -23.5808802329648
        ]
      },
      "properties": {
        "name": "14 - Museu da Casa Brasileira",
        "id": 14,
        "original_name": "Museu da Casa Brasileira",
        "station_id": 14,
        "station": "14 - Museu da Casa Brasileira"
      }
    },
    {
      "type": "Feature",
      "geometry": {
        "type": "Point",
        "coordinates": [
          -46.6870353144305,
          -23.5824196171547
        ]
      },
      "properties": {
        "name": "15 - Rua Prof. Artur Ramos",
        "id": 15,
        "original_name": "Rua Prof. Artur Ramos",
        "station_id": 15,
        "station": "15 - Rua Prof. Artur Ramos"
      }
    },
    {
      "type": "Feature",
      "geometry": {
        "type": "Point",
        "coordinates": [
          -46.6912872947886,
          -23.5823017032445
        ]
      },
      "properties": {
        "name": "16 - Esporte Clube Pinheiros Boliche",
        "id": 16,
        "original_name": "Esporte Clube Pinheiros Boliche",
        "station_id": 16,
        "station": "16 - Esporte Clube Pinheiros Boliche"
      }
    },
    {
      "type": "Feature",
      "geometry": {
        "type": "Point",
        "coordinates": [
          -46.6829077712383,
          -23.5843221297715
        ]
      },
      "properties": {
        "name": "17 - Rua José Gonçalves de Oliveira",
        "id": 17,
        "original_name": "Rua José Gonçalves de Oliveira",
        "station_id": 17,
        "station": "17 - Rua José Gonçalves de Oliveira"
      }
    },
    {
      "type": "Feature",
      "geometry": {
        "type": "Point",
        "coordinates": [
          -46.6839182197003,
          -23.5866957209891
        ]
      },
      "properties": {
        "name": "18 - Itaú Faria Lima",
        "id": 18,
        "original_name": "Itaú Faria Lima",
        "station_id": 18,
        "station": "18 - Itaú Faria Lima"
      }
    },
    {
      "type": "Feature",
      "geometry": {
        "type": "Point",
        "coordinates": [
          -46.6907050831378,
          -23.5957237516205
        ]
      },
      "properties": {
        "name": "19 - Av. Dr. Cardoso de Melo",
        "id": 19,
        "original_name": "Av. Dr. Cardoso de Melo",
        "station_id": 19,
        "station": "19 - Av. Dr. Cardoso de Melo"
      }
    },
    {
      "type": "Feature",
      "geometry": {
        "type": "Point",
        "coordinates": [
          -46.6904367894373,
          -23.5850202930326
        ]
      },
      "properties": {
        "name": "20 - CPTM Cidade Jardim",
        "id": 20,
        "original_name": "CPTM Cidade Jardim",
        "station_id": 20,
        "station": "20 - CPTM Cidade Jardim"
      }
    },
    {
      "type": "Feature",
      "geometry": {
        "type": "Point",
        "coordinates": [
          -46.6882179128703,
          -23.5890444167307
        ]
      },
      "properties": {
        "name": "21 - Parque do Povo portão 1",
        "id": 21,
        "original_name": "Parque do Povo portão 1",
        "station_id": 21,
        "station": "21 - Parque do Povo portão 1"
      }
    },
    {
      "type": "Feature",
      "geometry": {
        "type": "Point",
        "coordinates": [
          -46.683922812607,
          -23.5892048894301
        ]
      },
      "properties": {
        "name": "22 - Rua Leopoldo Couto",
        "id": 22,
        "original_name": "Rua Leopoldo Couto",
        "station_id": 22,
        "station": "22 - Rua Leopoldo Couto"
      }
    },
    {
      "type": "Feature",
      "geometry": {
        "type": "Point",
        "coordinates": [
          -46.6912681158608,
          -23.5939175701022
        ]
      },
      "properties": {
        "name": "23 - CPTM Vila Olímpia",
        "id": 23,
        "original_name": "CPTM Vila Olímpia",
        "station_id": 23,
        "station": "23 - CPTM Vila Olímpia"
      }
    },
    {
      "type": "Feature",
      "geometry": {
        "type": "Point",
        "coordinates": [
          -46.6880574172455,
          -23.5926646139517
        ]
      },
      "properties": {
        "name": "24 - Rua Funchal",
        "id": 24,
        "original_name": "Rua Funchal",
        "station_id": 24,
        "station": "24 - Rua Funchal"
      }
    },
    {
      "type": "Feature",
      "geometry": {
        "type": "Point",
        "coordinates": [
          -46.6844661081167,
          -23.5927625500081
        ]
      },
      "properties": {
        "name": "25 - Rua Helena",
        "id": 25,
        "original_name": "Rua Helena",
        "station_id": 25,
        "station": "25 - Rua Helena"
      }
    },
    {
      "type": "Feature",
      "geometry": {
        "type": "Point",
        "coordinates": [
          -46.6831999429786,
          -23.5954418983024
        ]
      },
      "properties": {
        "name": "26 - Praça Pierre Germayel",
        "id": 26,
        "original_name": "Praça Pierre Germayel",
        "station_id": 26,
        "station": "26 - Praça Pierre Germayel"
      }
    },
    {
      "type": "Feature",
      "geometry": {
        "type": "Point",
        "coordinates": [
          -46.6770266849259,
          -23.5933504143939
        ]
      },
      "properties": {
        "name": "28 - Rua Comendador Miguel Calfat",
        "id": 28,
        "original_name": "Rua Comendador Miguel Calfat",
        "station_id": 28,
        "station": "28 - Rua Comendador Miguel Calfat"
      }
    },
    {
      "type": "Feature",
      "geometry": {
        "type": "Point",
        "coordinates": [
          -46.6737765059991,
          -23.5902983608513
        ]
      },
      "properties": {
        "name": "30 - Bandeira Paulista",
        "id": 30,
        "original_name": "Bandeira Paulista",
        "station_id": 30,
        "station": "30 - Bandeira Paulista"
      }
    },
    {
      "type": "Feature",
      "geometry": {
        "type": "Point",
        "coordinates": [
          -46.6659155439702,
          -23.5904191029121
        ]
      },
      "properties": {
        "name": "32 - Ibirapuera Portão 07",
        "id": 32,
        "original_name": "Ibirapuera Portão 07",
        "station_id": 32,
        "station": "32 - Ibirapuera Portão 07"
      }
    },
    {
      "type": "Feature",
      "geometry": {
        "type": "Point",
        "coordinates": [
          -46.624649,
          -23.508128
        ]
      },
      "properties": {
        "name": "34 - Parque da Juventude",
        "id": 34,
        "original_name": "Parque da Juventude",
        "station_id": 34,
        "station": "34 - Parque da Juventude"
      }
    },
    {
      "type": "Feature",
      "geometry": {
        "type": "Point",
        "coordinates": [
          -46.6730159471865,
          -23.5872880300388
        ]
      },
      "properties": {
        "name": "35 - Rua Benedito Lapin",
        "id": 35,
        "original_name": "Rua Benedito Lapin",
        "station_id": 35,
        "station": "35 - Rua Benedito Lapin"
      }
    },
    {
      "type": "Feature",
      "geometry": {
        "type": "Point",
        "coordinates": [
          -46.6760816781162,
          -23.5867932793431
        ]
      },
      "properties": {
        "name": "36 - E.E. Aristides de Castro",
        "id": 36,
        "original_name": "E.E. Aristides de Castro",
        "station_id": 36,
        "station": "36 - E.E. Aristides de Castro"
      }
    },
    {
      "type": "Feature",
      "geometry": {
        "type": "Point",
        "coordinates": [
          -46.679125355911,
          -23.5876426356319
        ]
      },
      "properties": {
        "name": "37 - Edifício Infinity",
        "id": 37,
        "original_name": "Edifício Infinity",
        "station_id": 37,
        "station": "37 - Edifício Infinity"
      }
    },
    {
      "type": "Feature",
      "geometry": {
        "type": "Point",
        "coordinates": [
          -46.6750812615918,
          -23.5822156117651
        ]
      },
      "properties": {
        "name": "39 - Rua Jesuíno Arruda",
        "id": 39,
        "original_name": "Rua Jesuíno Arruda",
        "station_id": 39,
        "station": "39 - Rua Jesuíno Arruda"
      }
    },
    {
      "type": "Feature",
      "geometry": {
        "type": "Point",
        "coordinates": [
          -46.6720676960475,
          -23.5836480572258
        ]
      },
      "properties": {
        "name": "40 - Brasília",
        "id": 40,
        "original_name": "Brasília",
        "station_id": 40,
        "station": "40 - Brasília"
      }
    },
    {
      "type": "Feature",
      "geometry": {
        "type": "Point",
        "coordinates": [
          -46.71819,
          -23.65562
        ]
      },
      "properties": {
        "name": "41 - CPTM Santo Amaro",
        "id": 41,
        "original_name": "CPTM Santo Amaro",
        "station_id": 41,
        "station": "41 - CPTM Santo Amaro"
      }
    },
    {
      "type": "Feature",
      "geometry": {
        "type": "Point",
        "coordinates": [
          -46.626379384731,
          -23.5043385999018
        ]
      },
      "properties": {
        "name": "43 - Herois da FEB",
        "id": 43,
        "original_name": "Herois da FEB",
        "station_id": 43,
        "station": "43 - Herois da FEB"
      }
    },
    {
      "type": "Feature",
      "geometry": {
        "type": "Point",
        "coordinates": [
          -46.6348733614184,
          -23.5033576293652
        ]
      },
      "properties": {
        "name": "46 - Pç Tenente Coronel Heleuses Nogueira",
        "id": 46,
        "original_name": "Pç Tenente Coronel Heleuses Nogueira",
        "station_id": 46,
        "station": "46 - Pç Tenente Coronel Heleuses Nogueira"
      }
    },
    {
      "type": "Feature",
      "geometry": {
        "type": "Point",
        "coordinates": [
          -46.6705247776249,
          -23.5787313776399
        ]
      },
      "properties": {
        "name": "47 - Suzano",
        "id": 47,
        "original_name": "Suzano",
        "station_id": 47,
        "station": "47 - Suzano"
      }
    },
    {
      "type": "Feature",
      "geometry": {
        "type": "Point",
        "coordinates": [
          -46.6732522004535,
          -23.5795039033974
        ]
      },
      "properties": {
        "name": "48 - Itacema",
        "id": 48,
        "original_name": "Itacema",
        "station_id": 48,
        "station": "48 - Itacema"
      }
    },
    {
      "type": "Feature",
      "geometry": {
        "type": "Point",
        "coordinates": [
          -46.6804310364019,
          -23.5825417630555
        ]
      },
      "properties": {
        "name": "50 - Rua Prof. Carlos de Carvalho",
        "id": 50,
        "original_name": "Rua Prof. Carlos de Carvalho",
        "station_id": 50,
        "station": "50 - Rua Prof. Carlos de Carvalho"
      }
    },
    {
      "type": "Feature",
      "geometry": {
        "type": "Point",
        "coordinates": [
          -46.6383175924585,
          -23.503586032441
        ]
      },
      "properties": {
        "name": "51 - Braz Leme",
        "id": 51,
        "original_name": "Braz Leme",
        "station_id": 51,
        "station": "51 - Braz Leme"
      }
    },
    {
      "type": "Feature",
      "geometry": {
        "type": "Point",
        "coordinates": [
          -46.6820977165766,
          -23.5871323494481
        ]
      },
      "properties": {
        "name": "53 - Google São Paulo",
        "id": 53,
        "original_name": "Google São Paulo",
        "station_id": 53,
        "station": "53 - Google São Paulo"
      }
    },
    {
      "type": "Feature",
      "geometry": {
        "type": "Point",
        "coordinates": [
          -46.6818450911924,
          -23.5578862207592
        ]
      },
      "properties": {
        "name": "56 - Henrique Schaumann",
        "id": 56,
        "original_name": "Henrique Schaumann",
        "station_id": 56,
        "station": "56 - Henrique Schaumann"
      }
    },
    {
      "type": "Feature",
      "geometry": {
        "type": "Point",
        "coordinates": [
          -46.6788126288953,
          -23.5533637490461
        ]
      },
      "properties": {
        "name": "57 - Praça Caetano Fracaroli",
        "id": 57,
        "original_name": "Praça Caetano Fracaroli",
        "station_id": 57,
        "station": "57 - Praça Caetano Fracaroli"
      }
    },
    {
      "type": "Feature",
      "geometry": {
        "type": "Point",
        "coordinates": [
          -46.6826805765615,
          -23.5552633465693
        ]
      },
      "properties": {
        "name": "58 - R. Lisboa",
        "id": 58,
        "original_name": "R. Lisboa",
        "station_id": 58,
        "station": "58 - R. Lisboa"
      }
    },
    {
      "type": "Feature",
      "geometry": {
        "type": "Point",
        "coordinates": [
          -46.6926703781386,
          -23.5561973682702
        ]
      },
      "properties": {
        "name": "59 - EBAC",
        "id": 59,
        "original_name": "EBAC",
        "station_id": 59,
        "station": "59 - EBAC"
      }
    },
    {
      "type": "Feature",
      "geometry": {
        "type": "Point",
        "coordinates": [
          -46.652813156586,
          -23.5101281717627
        ]
      },
      "properties": {
        "name": "60 - Euclides da Silveira",
        "id": 60,
        "original_name": "Euclides da Silveira",
        "station_id": 60,
        "station": "60 - Euclides da Silveira"
      }
    },
    {
      "type": "Feature",
      "geometry": {
        "type": "Point",
        "coordinates": [
          -46.655159299844,
          -23.518556638408
        ]
      },
      "properties": {
        "name": "61 - Ponte da Casa Verde",
        "id": 61,
        "original_name": "Ponte da Casa Verde",
        "station_id": 61,
        "station": "61 - Ponte da Casa Verde"
      }
    },
    {
      "type": "Feature",
      "geometry": {
        "type": "Point",
        "coordinates": [
          -46.6553521728984,
          -23.5232231767525
        ]
      },
      "properties": {
        "name": "62 - Pça. Pe. Luís Alves de S. Castro",
        "id": 62,
        "original_name": "Pça. Pe. Luís Alves de S. Castro",
        "station_id": 62,
        "station": "62 - Pça. Pe. Luís Alves de S. Castro"
      }
    },
    {
      "type": "Feature",
      "geometry": {
        "type": "Point",
        "coordinates": [
          -46.6691871435547,
          -23.5685869226542
        ]
      },
      "properties": {
        "name": "63 - Club Athletico Paulistano",
        "id": 63,
        "original_name": "Club Athletico Paulistano",
        "station_id": 63,
        "station": "63 - Club Athletico Paulistano"
      }
    },
    {
      "type": "Feature",
      "geometry": {
        "type": "Point",
        "coordinates": [
          -46.6611375590414,
          -23.5220468993985
        ]
      },
      "properties": {
        "name": "64 - Av. Marques de São Vicente",
        "id": 64,
        "original_name": "Av. Marques de São Vicente",
        "station_id": 64,
        "station": "64 - Av. Marques de São Vicente"
      }
    },
    {
      "type": "Feature",
      "geometry": {
        "type": "Point",
        "coordinates": [
          -46.6641982855369,
          -23.5252688094018
        ]
      },
      "properties": {
        "name": "65 - Terminal Barra Funda ",
        "id": 65,
        "original_name": "Terminal Barra Funda ",
        "station_id": 65,
        "station": "65 - Terminal Barra Funda "
      }
    },
    {
      "type": "Feature",
      "geometry": {
        "type": "Point",
        "coordinates": [
          -46.6670056971772,
          -23.5268792944008
        ]
      },
      "properties": {
        "name": "66 - Metrô Barra Funda",
        "id": 66,
        "original_name": "Metrô Barra Funda",
        "station_id": 66,
        "station": "66 - Metrô Barra Funda"
      }
    },
    {
      "type": "Feature",
      "geometry": {
        "type": "Point",
        "coordinates": [
          -46.6661266859547,
          -23.5302119408073
        ]
      },
      "properties": {
        "name": "67 - Matarazzo",
        "id": 67,
        "original_name": "Matarazzo",
        "station_id": 67,
        "station": "67 - Matarazzo"
      }
    },
    {
      "type": "Feature",
      "geometry": {
        "type": "Point",
        "coordinates": [
          -46.6647314847334,
          -23.5703822522674
        ]
      },
      "properties": {
        "name": "68 - Praça Nicolau Scarpa",
        "id": 68,
        "original_name": "Praça Nicolau Scarpa",
        "station_id": 68,
        "station": "68 - Praça Nicolau Scarpa"
      }
    },
    {
      "type": "Feature",
      "geometry": {
        "type": "Point",
        "coordinates": [
          -46.6660490874622,
          -23.5657634935473
        ]
      },
      "properties": {
        "name": "69 - Oscar Freire",
        "id": 69,
        "original_name": "Oscar Freire",
        "station_id": 69,
        "station": "69 - Oscar Freire"
      }
    },
    {
      "type": "Feature",
      "geometry": {
        "type": "Point",
        "coordinates": [
          -46.6596995408145,
          -23.5699175975531
        ]
      },
      "properties": {
        "name": "71 - Pamplona",
        "id": 71,
        "original_name": "Pamplona",
        "station_id": 71,
        "station": "71 - Pamplona"
      }
    },
    {
      "type": "Feature",
      "geometry": {
        "type": "Point",
        "coordinates": [
          -46.6586038186061,
          -23.5727335213451
        ]
      },
      "properties": {
        "name": "72 - Queluz",
        "id": 72,
        "original_name": "Queluz",
        "station_id": 72,
        "station": "72 - Queluz"
      }
    },
    {
      "type": "Feature",
      "geometry": {
        "type": "Point",
        "coordinates": [
          -46.6564518396582,
          -23.5770321440522
        ]
      },
      "properties": {
        "name": "73 - Ginásio Ibirapuera",
        "id": 73,
        "original_name": "Ginásio Ibirapuera",
        "station_id": 73,
        "station": "73 - Ginásio Ibirapuera"
      }
    },
    {
      "type": "Feature",
      "geometry": {
        "type": "Point",
        "coordinates": [
          -46.6562492364418,
          -23.5801537882927
        ]
      },
      "properties": {
        "name": "74 - Círculo Militar",
        "id": 74,
        "original_name": "Círculo Militar",
        "station_id": 74,
        "station": "74 - Círculo Militar"
      }
    },
    {
      "type": "Feature",
      "geometry": {
        "type": "Point",
        "coordinates": [
          -46.6504327496116,
          -23.5803036309472
        ]
      },
      "properties": {
        "name": "75 - Viaduto Tutóia",
        "id": 75,
        "original_name": "Viaduto Tutóia",
        "station_id": 75,
        "station": "75 - Viaduto Tutóia"
      }
    },
    {
      "type": "Feature",
      "geometry": {
        "type": "Point",
        "coordinates": [
          -46.6540400716306,
          -23.5742984595697
        ]
      },
      "properties": {
        "name": "76 - 8º Batalhão",
        "id": 76,
        "original_name": "8º Batalhão",
        "station_id": 76,
        "station": "76 - 8º Batalhão"
      }
    },
    {
      "type": "Feature",
      "geometry": {
        "type": "Point",
        "coordinates": [
          -46.6553101677443,
          -23.570389641893
        ]
      },
      "properties": {
        "name": "77 - Alameda J. Eugênio de Lima",
        "id": 77,
        "original_name": "Alameda J. Eugênio de Lima",
        "station_id": 77,
        "station": "77 - Alameda J. Eugênio de Lima"
      }
    },
    {
      "type": "Feature",
      "geometry": {
        "type": "Point",
        "coordinates": [
          -46.6615507480199,
          -23.5281721668385
        ]
      },
      "properties": {
        "name": "79 - Pça David Raw",
        "id": 79,
        "original_name": "Pça David Raw",
        "station_id": 79,
        "station": "79 - Pça David Raw"
      }
    },
    {
      "type": "Feature",
      "geometry": {
        "type": "Point",
        "coordinates": [
          -46.6569662423861,
          -23.5645177063061
        ]
      },
      "properties": {
        "name": "80 - Praça Alexandre de Gusmão",
        "id": 80,
        "original_name": "Praça Alexandre de Gusmão",
        "station_id": 80,
        "station": "80 - Praça Alexandre de Gusmão"
      }
    },
    {
      "type": "Feature",
      "geometry": {
        "type": "Point",
        "coordinates": [
          -46.6839358914948,
          -23.5252011996403
        ]
      },
      "properties": {
        "name": "81 - SESC Pompéia",
        "id": 81,
        "original_name": "SESC Pompéia",
        "station_id": 81,
        "station": "81 - SESC Pompéia"
      }
    },
    {
      "type": "Feature",
      "geometry": {
        "type": "Point",
        "coordinates": [
          -46.6776241047456,
          -23.5295509375709
        ]
      },
      "properties": {
        "name": "82 - Palestra Itália",
        "id": 82,
        "original_name": "Palestra Itália",
        "station_id": 82,
        "station": "82 - Palestra Itália"
      }
    },
    {
      "type": "Feature",
      "geometry": {
        "type": "Point",
        "coordinates": [
          -46.6649115916232,
          -23.562835912553
        ]
      },
      "properties": {
        "name": "83 - Augusta",
        "id": 83,
        "original_name": "Augusta",
        "station_id": 83,
        "station": "83 - Augusta"
      }
    },
    {
      "type": "Feature",
      "geometry": {
        "type": "Point",
        "coordinates": [
          -46.6626658808429,
          -23.5559579861242
        ]
      },
      "properties": {
        "name": "85 - Praça do Ciclista",
        "id": 85,
        "original_name": "Praça do Ciclista",
        "station_id": 85,
        "station": "85 - Praça do Ciclista"
      }
    },
    {
      "type": "Feature",
      "geometry": {
        "type": "Point",
        "coordinates": [
          -46.659609825984,
          -23.5584250062578
        ]
      },
      "properties": {
        "name": "86 - Shopping Center 3",
        "id": 86,
        "original_name": "Shopping Center 3",
        "station_id": 86,
        "station": "86 - Shopping Center 3"
      }
    },
    {
      "type": "Feature",
      "geometry": {
        "type": "Point",
        "coordinates": [
          -46.65819,
          -23.56004
        ]
      },
      "properties": {
        "name": "87 - Parque Prefeito Mário Covas",
        "id": 87,
        "original_name": "Parque Prefeito Mário Covas",
        "station_id": 87,
        "station": "87 - Parque Prefeito Mário Covas"
      }
    },
    {
      "type": "Feature",
      "geometry": {
        "type": "Point",
        "coordinates": [
          -46.6737218412473,
          -23.5354050849495
        ]
      },
      "properties": {
        "name": "88 - João Ramalho",
        "id": 88,
        "original_name": "João Ramalho",
        "station_id": 88,
        "station": "88 - João Ramalho"
      }
    },
    {
      "type": "Feature",
      "geometry": {
        "type": "Point",
        "coordinates": [
          -46.6742620549583,
          -23.53826440252
        ]
      },
      "properties": {
        "name": "89 - Caiubí",
        "id": 89,
        "original_name": "Caiubí",
        "station_id": 89,
        "station": "89 - Caiubí"
      }
    },
    {
      "type": "Feature",
      "geometry": {
        "type": "Point",
        "coordinates": [
          -46.6523898406747,
          -23.5645728749771
        ]
      },
      "properties": {
        "name": "90 - Alameda Campinas",
        "id": 90,
        "original_name": "Alameda Campinas",
        "station_id": 90,
        "station": "90 - Alameda Campinas"
      }
    },
    {
      "type": "Feature",
      "geometry": {
        "type": "Point",
        "coordinates": [
          -46.6504363824566,
          -23.5662497091298
        ]
      },
      "properties": {
        "name": "91 - Paulista 778",
        "id": 91,
        "original_name": "Paulista 778",
        "station_id": 91,
        "station": "91 - Paulista 778"
      }
    },
    {
      "type": "Feature",
      "geometry": {
        "type": "Point",
        "coordinates": [
          -46.6486743523506,
          -23.5681059122191
        ]
      },
      "properties": {
        "name": "92 - Metrô Brigadeiro",
        "id": 92,
        "original_name": "Metrô Brigadeiro",
        "station_id": 92,
        "station": "92 - Metrô Brigadeiro"
      }
    },
    {
      "type": "Feature",
      "geometry": {
        "type": "Point",
        "coordinates": [
          -46.6454074048945,
          -23.5666631175994
        ]
      },
      "properties": {
        "name": "93 - R. Carlos Sampaio",
        "id": 93,
        "original_name": "R. Carlos Sampaio",
        "station_id": 93,
        "station": "93 - R. Carlos Sampaio"
      }
    },
    {
      "type": "Feature",
      "geometry": {
        "type": "Point",
        "coordinates": [
          -46.6489777696966,
          -23.5681587220928
        ]
      },
      "properties": {
        "name": "95 - R. Manoel da Nóbrega ",
        "id": 95,
        "original_name": "R. Manoel da Nóbrega ",
        "station_id": 95,
        "station": "95 - R. Manoel da Nóbrega "
      }
    },
    {
      "type": "Feature",
      "geometry": {
        "type": "Point",
        "coordinates": [
          -46.6514144849816,
          -23.5738230003483
        ]
      },
      "properties": {
        "name": "96 - Tutóia",
        "id": 96,
        "original_name": "Tutóia",
        "station_id": 96,
        "station": "96 - Tutóia"
      }
    },
    {
      "type": "Feature",
      "geometry": {
        "type": "Point",
        "coordinates": [
          -46.6763898266739,
          -23.541413385853
        ]
      },
      "properties": {
        "name": "97 - Praça Irmãos Karmam",
        "id": 97,
        "original_name": "Praça Irmãos Karmam",
        "station_id": 97,
        "station": "97 - Praça Irmãos Karmam"
      }
    },
    {
      "type": "Feature",
      "geometry": {
        "type": "Point",
        "coordinates": [
          -46.6483984,
          -23.5752978
        ]
      },
      "properties": {
        "name": "98 - Sampaio Viana",
        "id": 98,
        "original_name": "Sampaio Viana",
        "station_id": 98,
        "station": "98 - Sampaio Viana"
      }
    },
    {
      "type": "Feature",
      "geometry": {
        "type": "Point",
        "coordinates": [
          -46.6683997647917,
          -23.5316825837021
        ]
      },
      "properties": {
        "name": "99 - Parque da Água Branca",
        "id": 99,
        "original_name": "Parque da Água Branca",
        "station_id": 99,
        "station": "99 - Parque da Água Branca"
      }
    },
    {
      "type": "Feature",
      "geometry": {
        "type": "Point",
        "coordinates": [
          -46.6458343207028,
          -23.570439240226
        ]
      },
      "properties": {
        "name": "100 - Itaú Cultural",
        "id": 100,
        "original_name": "Itaú Cultural",
        "station_id": 100,
        "station": "100 - Itaú Cultural"
      }
    },
    {
      "type": "Feature",
      "geometry": {
        "type": "Point",
        "coordinates": [
          -46.6949615662523,
          -23.6049435587906
        ]
      },
      "properties": {
        "name": "101 - Praça Gen. Gentil Falcão",
        "id": 101,
        "original_name": "Praça Gen. Gentil Falcão",
        "station_id": 101,
        "station": "101 - Praça Gen. Gentil Falcão"
      }
    },
    {
      "type": "Feature",
      "geometry": {
        "type": "Point",
        "coordinates": [
          -46.694953329576,
          -23.6118685865358
        ]
      },
      "properties": {
        "name": "102 - Rua James Watt",
        "id": 102,
        "original_name": "Rua James Watt",
        "station_id": 102,
        "station": "102 - Rua James Watt"
      }
    },
    {
      "type": "Feature",
      "geometry": {
        "type": "Point",
        "coordinates": [
          -46.6944769361133,
          -23.6089863999008
        ]
      },
      "properties": {
        "name": "103 - Rua Hans Oersted",
        "id": 103,
        "original_name": "Rua Hans Oersted",
        "station_id": 103,
        "station": "103 - Rua Hans Oersted"
      }
    },
    {
      "type": "Feature",
      "geometry": {
        "type": "Point",
        "coordinates": [
          -46.6921505751105,
          -23.6023654922839
        ]
      },
      "properties": {
        "name": "105 - Praça João Duran Alonso",
        "id": 105,
        "original_name": "Praça João Duran Alonso",
        "station_id": 105,
        "station": "105 - Praça João Duran Alonso"
      }
    },
    {
      "type": "Feature",
      "geometry": {
        "type": "Point",
        "coordinates": [
          -46.6916217996544,
          -23.6090278763808
        ]
      },
      "properties": {
        "name": "106 - Rua Flórida",
        "id": 106,
        "original_name": "Rua Flórida",
        "station_id": 106,
        "station": "106 - Rua Flórida"
      }
    },
    {
      "type": "Feature",
      "geometry": {
        "type": "Point",
        "coordinates": [
          -46.6883614489809,
          -23.6076225615591
        ]
      },
      "properties": {
        "name": "107 - Rua Indiana",
        "id": 107,
        "original_name": "Rua Indiana",
        "station_id": 107,
        "station": "107 - Rua Indiana"
      }
    },
    {
      "type": "Feature",
      "geometry": {
        "type": "Point",
        "coordinates": [
          -46.6925864305815,
          -23.6034624685839
        ]
      },
      "properties": {
        "name": "109 - Praça Oswaldo Varella",
        "id": 109,
        "original_name": "Praça Oswaldo Varella",
        "station_id": 109,
        "station": "109 - Praça Oswaldo Varella"
      }
    },
    {
      "type": "Feature",
      "geometry": {
        "type": "Point",
        "coordinates": [
          -46.6940207690703,
          -23.6073571436751
        ]
      },
      "properties": {
        "name": "110 - Flórida 1670",
        "id": 110,
        "original_name": "Flórida 1670",
        "station_id": 110,
        "station": "110 - Flórida 1670"
      }
    },
    {
      "type": "Feature",
      "geometry": {
        "type": "Point",
        "coordinates": [
          -46.6957413582252,
          -23.6121427531147
        ]
      },
      "properties": {
        "name": "112 - R. Lee de Forest",
        "id": 112,
        "original_name": "R. Lee de Forest",
        "station_id": 112,
        "station": "112 - R. Lee de Forest"
      }
    },
    {
      "type": "Feature",
      "geometry": {
        "type": "Point",
        "coordinates": [
          -46.6769891687778,
          -23.6039010735058
        ]
      },
      "properties": {
        "name": "113 - Rua Andrade Pertence",
        "id": 113,
        "original_name": "Rua Andrade Pertence",
        "station_id": 113,
        "station": "113 - Rua Andrade Pertence"
      }
    },
    {
      "type": "Feature",
      "geometry": {
        "type": "Point",
        "coordinates": [
          -46.68170564666,
          -23.6013159108738
        ]
      },
      "properties": {
        "name": "114 - Rua Alvorada",
        "id": 114,
        "original_name": "Rua Alvorada",
        "station_id": 114,
        "station": "114 - Rua Alvorada"
      }
    },
    {
      "type": "Feature",
      "geometry": {
        "type": "Point",
        "coordinates": [
          -46.6894766023497,
          -23.6001574646657
        ]
      },
      "properties": {
        "name": "115 - Praça Procópio Ferreira",
        "id": 115,
        "original_name": "Praça Procópio Ferreira",
        "station_id": 115,
        "station": "115 - Praça Procópio Ferreira"
      }
    },
    {
      "type": "Feature",
      "geometry": {
        "type": "Point",
        "coordinates": [
          -46.6865907226439,
          -23.5966593672495
        ]
      },
      "properties": {
        "name": "117 - Cubo Itaú",
        "id": 117,
        "original_name": "Cubo Itaú",
        "station_id": 117,
        "station": "117 - Cubo Itaú"
      }
    },
    {
      "type": "Feature",
      "geometry": {
        "type": "Point",
        "coordinates": [
          -46.6840348376308,
          -23.5977973921346
        ]
      },
      "properties": {
        "name": "118 - Rua Júlio Diniz",
        "id": 118,
        "original_name": "Rua Júlio Diniz",
        "station_id": 118,
        "station": "118 - Rua Júlio Diniz"
      }
    },
    {
      "type": "Feature",
      "geometry": {
        "type": "Point",
        "coordinates": [
          -46.6804311376391,
          -23.5970325358107
        ]
      },
      "properties": {
        "name": "119 - Rua Quatá",
        "id": 119,
        "original_name": "Rua Quatá",
        "station_id": 119,
        "station": "119 - Rua Quatá"
      }
    },
    {
      "type": "Feature",
      "geometry": {
        "type": "Point",
        "coordinates": [
          -46.6795527222334,
          -23.5997736418236
        ]
      },
      "properties": {
        "name": "120 - Rua Gomes de Carvalho",
        "id": 120,
        "original_name": "Rua Gomes de Carvalho",
        "station_id": 120,
        "station": "120 - Rua Gomes de Carvalho"
      }
    },
    {
      "type": "Feature",
      "geometry": {
        "type": "Point",
        "coordinates": [
          -46.6776630781739,
          -23.5978131886461
        ]
      },
      "properties": {
        "name": "121 - Insper",
        "id": 121,
        "original_name": "Insper",
        "station_id": 121,
        "station": "121 - Insper"
      }
    },
    {
      "type": "Feature",
      "geometry": {
        "type": "Point",
        "coordinates": [
          -46.6754248186942,
          -23.6006795981776
        ]
      },
      "properties": {
        "name": "122 - Baluarte",
        "id": 122,
        "original_name": "Baluarte",
        "station_id": 122,
        "station": "122 - Baluarte"
      }
    },
    {
      "type": "Feature",
      "geometry": {
        "type": "Point",
        "coordinates": [
          -46.6749451529719,
          -23.5948089866643
        ]
      },
      "properties": {
        "name": "123 - R. Santa Justina",
        "id": 123,
        "original_name": "R. Santa Justina",
        "station_id": 123,
        "station": "123 - R. Santa Justina"
      }
    },
    {
      "type": "Feature",
      "geometry": {
        "type": "Point",
        "coordinates": [
          -46.6692773588711,
          -23.5940306200704
        ]
      },
      "properties": {
        "name": "124 - Praça Pereira Coutinho",
        "id": 124,
        "original_name": "Praça Pereira Coutinho",
        "station_id": 124,
        "station": "124 - Praça Pereira Coutinho"
      }
    },
    {
      "type": "Feature",
      "geometry": {
        "type": "Point",
        "coordinates": [
          -46.6716583619071,
          -23.5972296670023
        ]
      },
      "properties": {
        "name": "125 - Natividade",
        "id": 125,
        "original_name": "Natividade",
        "station_id": 125,
        "station": "125 - Natividade"
      }
    },
    {
      "type": "Feature",
      "geometry": {
        "type": "Point",
        "coordinates": [
          -46.6711916347834,
          -23.6013401704407
        ]
      },
      "properties": {
        "name": "126 - Graúna",
        "id": 126,
        "original_name": "Graúna",
        "station_id": 126,
        "station": "126 - Graúna"
      }
    },
    {
      "type": "Feature",
      "geometry": {
        "type": "Point",
        "coordinates": [
          -46.668921020279,
          -23.600369824627
        ]
      },
      "properties": {
        "name": "127 - Jacutinga",
        "id": 127,
        "original_name": "Jacutinga",
        "station_id": 127,
        "station": "127 - Jacutinga"
      }
    },
    {
      "type": "Feature",
      "geometry": {
        "type": "Point",
        "coordinates": [
          -46.6665456773041,
          -23.596549642468
        ]
      },
      "properties": {
        "name": "128 - R. Sampaio Góis",
        "id": 128,
        "original_name": "R. Sampaio Góis",
        "station_id": 128,
        "station": "128 - R. Sampaio Góis"
      }
    },
    {
      "type": "Feature",
      "geometry": {
        "type": "Point",
        "coordinates": [
          -46.6638,
          -23.6033
        ]
      },
      "properties": {
        "name": "129 - Praça do Pombo",
        "id": 129,
        "original_name": "Praça do Pombo",
        "station_id": 129,
        "station": "129 - Praça do Pombo"
      }
    },
    {
      "type": "Feature",
      "geometry": {
        "type": "Point",
        "coordinates": [
          -46.6641781648402,
          -23.5958920911892
        ]
      },
      "properties": {
        "name": "130 - Afonso Braz",
        "id": 130,
        "original_name": "Afonso Braz",
        "station_id": 130,
        "station": "130 - Afonso Braz"
      }
    },
    {
      "type": "Feature",
      "geometry": {
        "type": "Point",
        "coordinates": [
          -46.659362734414,
          -23.5934574009144
        ]
      },
      "properties": {
        "name": "131 - Ibirapuera Portão 06",
        "id": 131,
        "original_name": "Ibirapuera Portão 06",
        "station_id": 131,
        "station": "131 - Ibirapuera Portão 06"
      }
    },
    {
      "type": "Feature",
      "geometry": {
        "type": "Point",
        "coordinates": [
          -46.6553996394387,
          -23.5921163886911
        ]
      },
      "properties": {
        "name": "132 - Ibirapuera Portão 05",
        "id": 132,
        "original_name": "Ibirapuera Portão 05",
        "station_id": 132,
        "station": "132 - Ibirapuera Portão 05"
      }
    },
    {
      "type": "Feature",
      "geometry": {
        "type": "Point",
        "coordinates": [
          -46.654976517583,
          -23.5946168877796
        ]
      },
      "properties": {
        "name": "133 - Largo Mestre de Aviz",
        "id": 133,
        "original_name": "Largo Mestre de Aviz",
        "station_id": 133,
        "station": "133 - Largo Mestre de Aviz"
      }
    },
    {
      "type": "Feature",
      "geometry": {
        "type": "Point",
        "coordinates": [
          -46.6573748820272,
          -23.5820532321531
        ]
      },
      "properties": {
        "name": "135 - Ibirapuera Portão 10",
        "id": 135,
        "original_name": "Ibirapuera Portão 10",
        "station_id": 135,
        "station": "135 - Ibirapuera Portão 10"
      }
    },
    {
      "type": "Feature",
      "geometry": {
        "type": "Point",
        "coordinates": [
          -46.6800723302731,
          -23.5936014851943
        ]
      },
      "properties": {
        "name": "138 - Chilon",
        "id": 138,
        "original_name": "Chilon",
        "station_id": 138,
        "station": "138 - Chilon"
      }
    },
    {
      "type": "Feature",
      "geometry": {
        "type": "Point",
        "coordinates": [
          -46.688863187992,
          -23.590748349533
        ]
      },
      "properties": {
        "name": "140 - JK Iguatemi",
        "id": 140,
        "original_name": "JK Iguatemi",
        "station_id": 140,
        "station": "140 - JK Iguatemi"
      }
    },
    {
      "type": "Feature",
      "geometry": {
        "type": "Point",
        "coordinates": [
          -46.6838868603995,
          -23.5827091295632
        ]
      },
      "properties": {
        "name": "141 - Praça Luis Carlos Paraná",
        "id": 141,
        "original_name": "Praça Luis Carlos Paraná",
        "station_id": 141,
        "station": "141 - Praça Luis Carlos Paraná"
      }
    },
    {
      "type": "Feature",
      "geometry": {
        "type": "Point",
        "coordinates": [
          -46.6591867859776,
          -23.5317430614974
        ]
      },
      "properties": {
        "name": "142 - Minhocão",
        "id": 142,
        "original_name": "Minhocão",
        "station_id": 142,
        "station": "142 - Minhocão"
      }
    },
    {
      "type": "Feature",
      "geometry": {
        "type": "Point",
        "coordinates": [
          -46.6779598577902,
          -23.5841082600817
        ]
      },
      "properties": {
        "name": "143 - Rua João Cachoeira",
        "id": 143,
        "original_name": "Rua João Cachoeira",
        "station_id": 143,
        "station": "143 - Rua João Cachoeira"
      }
    },
    {
      "type": "Feature",
      "geometry": {
        "type": "Point",
        "coordinates": [
          -46.6810655326171,
          -23.5870546520685
        ]
      },
      "properties": {
        "name": "144 - Rua Iguatemi",
        "id": 144,
        "original_name": "Rua Iguatemi",
        "station_id": 144,
        "station": "144 - Rua Iguatemi"
      }
    },
    {
      "type": "Feature",
      "geometry": {
        "type": "Point",
        "coordinates": [
          -46.6962601886354,
          -23.6049719308606
        ]
      },
      "properties": {
        "name": "145 - CPTM Berrini",
        "id": 145,
        "original_name": "CPTM Berrini",
        "station_id": 145,
        "station": "145 - CPTM Berrini"
      }
    },
    {
      "type": "Feature",
      "geometry": {
        "type": "Point",
        "coordinates": [
          -46.6527868201291,
          -23.5890430938806
        ]
      },
      "properties": {
        "name": "146 - Ibirapuera Portão 03",
        "id": 146,
        "original_name": "Ibirapuera Portão 03",
        "station_id": 146,
        "station": "146 - Ibirapuera Portão 03"
      }
    },
    {
      "type": "Feature",
      "geometry": {
        "type": "Point",
        "coordinates": [
          -46.6442442465325,
          -23.5751852010033
        ]
      },
      "properties": {
        "name": "149 - Rua Afonso de Freitas",
        "id": 149,
        "original_name": "Rua Afonso de Freitas",
        "station_id": 149,
        "station": "149 - Rua Afonso de Freitas"
      }
    },
    {
      "type": "Feature",
      "geometry": {
        "type": "Point",
        "coordinates": [
          -46.6415215997509,
          -23.5749909630878
        ]
      },
      "properties": {
        "name": "150 - Metrô Paraíso",
        "id": 150,
        "original_name": "Metrô Paraíso",
        "station_id": 150,
        "station": "150 - Metrô Paraíso"
      }
    },
    {
      "type": "Feature",
      "geometry": {
        "type": "Point",
        "coordinates": [
          -46.6399782950921,
          -23.5697804473938
        ]
      },
      "properties": {
        "name": "151 - Centro Cultural SP",
        "id": 151,
        "original_name": "Centro Cultural SP",
        "station_id": 151,
        "station": "151 - Centro Cultural SP"
      }
    },
    {
      "type": "Feature",
      "geometry": {
        "type": "Point",
        "coordinates": [
          -46.6422656825963,
          -23.5604966383472
        ]
      },
      "properties": {
        "name": "153 - Monsenhor Passaláqua",
        "id": 153,
        "original_name": "Monsenhor Passaláqua",
        "station_id": 153,
        "station": "153 - Monsenhor Passaláqua"
      }
    },
    {
      "type": "Feature",
      "geometry": {
        "type": "Point",
        "coordinates": [
          -46.6397155073801,
          -23.5578839112131
        ]
      },
      "properties": {
        "name": "154 - R. Condessa de São Joaquim",
        "id": 154,
        "original_name": "R. Condessa de São Joaquim",
        "station_id": 154,
        "station": "154 - R. Condessa de São Joaquim"
      }
    },
    {
      "type": "Feature",
      "geometry": {
        "type": "Point",
        "coordinates": [
          -46.6469450459497,
          -23.5626885921653
        ]
      },
      "properties": {
        "name": "155 - Rua dos Belgas",
        "id": 155,
        "original_name": "Rua dos Belgas",
        "station_id": 155,
        "station": "155 - Rua dos Belgas"
      }
    },
    {
      "type": "Feature",
      "geometry": {
        "type": "Point",
        "coordinates": [
          -46.64540098,
          -23.55988804
        ]
      },
      "properties": {
        "name": "156 - Praça Dom Orione",
        "id": 156,
        "original_name": "Praça Dom Orione",
        "station_id": 156,
        "station": "156 - Praça Dom Orione"
      }
    },
    {
      "type": "Feature",
      "geometry": {
        "type": "Point",
        "coordinates": [
          -46.6517,
          -23.5601
        ]
      },
      "properties": {
        "name": "158 - Alameda Rio Claro",
        "id": 158,
        "original_name": "Alameda Rio Claro",
        "station_id": 158,
        "station": "158 - Alameda Rio Claro"
      }
    },
    {
      "type": "Feature",
      "geometry": {
        "type": "Point",
        "coordinates": [
          -46.6385861918078,
          -23.5633565983964
        ]
      },
      "properties": {
        "name": "159 - Metrô São Joaquim",
        "id": 159,
        "original_name": "Metrô São Joaquim",
        "station_id": 159,
        "station": "159 - Metrô São Joaquim"
      }
    },
    {
      "type": "Feature",
      "geometry": {
        "type": "Point",
        "coordinates": [
          -46.6520335101847,
          -23.5550645493143
        ]
      },
      "properties": {
        "name": "162 - Herculano de Freitas",
        "id": 162,
        "original_name": "Herculano de Freitas",
        "station_id": 162,
        "station": "162 - Herculano de Freitas"
      }
    },
    {
      "type": "Feature",
      "geometry": {
        "type": "Point",
        "coordinates": [
          -46.6510376596248,
          -23.5530167175194
        ]
      },
      "properties": {
        "name": "163 - Paim",
        "id": 163,
        "original_name": "Paim",
        "station_id": 163,
        "station": "163 - Paim"
      }
    },
    {
      "type": "Feature",
      "geometry": {
        "type": "Point",
        "coordinates": [
          -46.6568015417804,
          -23.5520481655859
        ]
      },
      "properties": {
        "name": "165 - Cemitério Consolação",
        "id": 165,
        "original_name": "Cemitério Consolação",
        "station_id": 165,
        "station": "165 - Cemitério Consolação"
      }
    },
    {
      "type": "Feature",
      "geometry": {
        "type": "Point",
        "coordinates": [
          -46.6471562050592,
          -23.5485777016467
        ]
      },
      "properties": {
        "name": "167 - Praça Roosevelt",
        "id": 167,
        "original_name": "Praça Roosevelt",
        "station_id": 167,
        "station": "167 - Praça Roosevelt"
      }
    },
    {
      "type": "Feature",
      "geometry": {
        "type": "Point",
        "coordinates": [
          -46.6423831739113,
          -23.552657354472
        ]
      },
      "properties": {
        "name": "169 - Rua São Domingos",
        "id": 169,
        "original_name": "Rua São Domingos",
        "station_id": 169,
        "station": "169 - Rua São Domingos"
      }
    },
    {
      "type": "Feature",
      "geometry": {
        "type": "Point",
        "coordinates": [
          -46.63565212,
          -23.55507044
        ]
      },
      "properties": {
        "name": "171 - Praça da Liberdade",
        "id": 171,
        "original_name": "Praça da Liberdade",
        "station_id": 171,
        "station": "171 - Praça da Liberdade"
      }
    },
    {
      "type": "Feature",
      "geometry": {
        "type": "Point",
        "coordinates": [
          -46.63454504,
          -23.54402567
        ]
      },
      "properties": {
        "name": "173 - Largo de São Bento",
        "id": 173,
        "original_name": "Largo de São Bento",
        "station_id": 173,
        "station": "173 - Largo de São Bento"
      }
    },
    {
      "type": "Feature",
      "geometry": {
        "type": "Point",
        "coordinates": [
          -46.6370206402818,
          -23.5491978637596
        ]
      },
      "properties": {
        "name": "174 - Largo São Francisco",
        "id": 174,
        "original_name": "Largo São Francisco",
        "station_id": 174,
        "station": "174 - Largo São Francisco"
      }
    },
    {
      "type": "Feature",
      "geometry": {
        "type": "Point",
        "coordinates": [
          -46.6579877600663,
          -23.5579898497291
        ]
      },
      "properties": {
        "name": "175 - R. Luis Coelho",
        "id": 175,
        "original_name": "R. Luis Coelho",
        "station_id": 175,
        "station": "175 - R. Luis Coelho"
      }
    },
    {
      "type": "Feature",
      "geometry": {
        "type": "Point",
        "coordinates": [
          -46.6406185501522,
          -23.547640346185
        ]
      },
      "properties": {
        "name": "176 - R. Cel. Xavier de Toledo",
        "id": 176,
        "original_name": "R. Cel. Xavier de Toledo",
        "station_id": 176,
        "station": "176 - R. Cel. Xavier de Toledo"
      }
    },
    {
      "type": "Feature",
      "geometry": {
        "type": "Point",
        "coordinates": [
          -46.6395339948596,
          -23.5428158801363
        ]
      },
      "properties": {
        "name": "177 - Av. São João",
        "id": 177,
        "original_name": "Av. São João",
        "station_id": 177,
        "station": "177 - Av. São João"
      }
    },
    {
      "type": "Feature",
      "geometry": {
        "type": "Point",
        "coordinates": [
          -46.6432462652324,
          -23.5456630543638
        ]
      },
      "properties": {
        "name": "178 - Av. São Luís",
        "id": 178,
        "original_name": "Av. São Luís",
        "station_id": 178,
        "station": "178 - Av. São Luís"
      }
    },
    {
      "type": "Feature",
      "geometry": {
        "type": "Point",
        "coordinates": [
          -46.6498022180738,
          -23.5398674287039
        ]
      },
      "properties": {
        "name": "181 - Metrô Santa Cecília",
        "id": 181,
        "original_name": "Metrô Santa Cecília",
        "station_id": 181,
        "station": "181 - Metrô Santa Cecília"
      }
    },
    {
      "type": "Feature",
      "geometry": {
        "type": "Point",
        "coordinates": [
          -46.651718320821,
          -23.545324819388
        ]
      },
      "properties": {
        "name": "183 - Mackenzie",
        "id": 183,
        "original_name": "Mackenzie",
        "station_id": 183,
        "station": "183 - Mackenzie"
      }
    },
    {
      "type": "Feature",
      "geometry": {
        "type": "Point",
        "coordinates": [
          -46.6553462309905,
          -23.5488591214319
        ]
      },
      "properties": {
        "name": "186 - Itambé",
        "id": 186,
        "original_name": "Itambé",
        "station_id": 186,
        "station": "186 - Itambé"
      }
    },
    {
      "type": "Feature",
      "geometry": {
        "type": "Point",
        "coordinates": [
          -46.6570562938632,
          -23.5456065509866
        ]
      },
      "properties": {
        "name": "187 - Parque Buenos Aires",
        "id": 187,
        "original_name": "Parque Buenos Aires",
        "station_id": 187,
        "station": "187 - Parque Buenos Aires"
      }
    },
    {
      "type": "Feature",
      "geometry": {
        "type": "Point",
        "coordinates": [
          -46.6904882733558,
          -23.5706120024434
        ]
      },
      "properties": {
        "name": "189 - CEMG Faria Lima",
        "id": 189,
        "original_name": "CEMG Faria Lima",
        "station_id": 189,
        "station": "189 - CEMG Faria Lima"
      }
    },
    {
      "type": "Feature",
      "geometry": {
        "type": "Point",
        "coordinates": [
          -46.6606310404426,
          -23.543490788406
        ]
      },
      "properties": {
        "name": "192 - Pernambuco",
        "id": 192,
        "original_name": "Pernambuco",
        "station_id": 192,
        "station": "192 - Pernambuco"
      }
    },
    {
      "type": "Feature",
      "geometry": {
        "type": "Point",
        "coordinates": [
          -46.7080343523465,
          -23.569908843225
        ]
      },
      "properties": {
        "name": "193 - Praça Monte Castelo",
        "id": 193,
        "original_name": "Praça Monte Castelo",
        "station_id": 193,
        "station": "193 - Praça Monte Castelo"
      }
    },
    {
      "type": "Feature",
      "geometry": {
        "type": "Point",
        "coordinates": [
          -46.6555547195509,
          -23.5415334086621
        ]
      },
      "properties": {
        "name": "194 - Jaguaribe",
        "id": 194,
        "original_name": "Jaguaribe",
        "station_id": 194,
        "station": "194 - Jaguaribe"
      }
    },
    {
      "type": "Feature",
      "geometry": {
        "type": "Point",
        "coordinates": [
          -46.6541473967476,
          -23.5369791042457
        ]
      },
      "properties": {
        "name": "196 - Alameda Barros",
        "id": 196,
        "original_name": "Alameda Barros",
        "station_id": 196,
        "station": "196 - Alameda Barros"
      }
    },
    {
      "type": "Feature",
      "geometry": {
        "type": "Point",
        "coordinates": [
          -46.6579044578009,
          -23.5390004148871
        ]
      },
      "properties": {
        "name": "197 - Albuquerque Lins",
        "id": 197,
        "original_name": "Albuquerque Lins",
        "station_id": 197,
        "station": "197 - Albuquerque Lins"
      }
    },
    {
      "type": "Feature",
      "geometry": {
        "type": "Point",
        "coordinates": [
          -46.656765280581,
          -23.5358897652191
        ]
      },
      "properties": {
        "name": "198 - Marechal Deodoro",
        "id": 198,
        "original_name": "Marechal Deodoro",
        "station_id": 198,
        "station": "198 - Marechal Deodoro"
      }
    },
    {
      "type": "Feature",
      "geometry": {
        "type": "Point",
        "coordinates": [
          -46.660190374256,
          -23.5351173339965
        ]
      },
      "properties": {
        "name": "199 - Conselheiro Brotero",
        "id": 199,
        "original_name": "Conselheiro Brotero",
        "station_id": 199,
        "station": "199 - Conselheiro Brotero"
      }
    },
    {
      "type": "Feature",
      "geometry": {
        "type": "Point",
        "coordinates": [
          -46.6781700464487,
          -23.5515095992215
        ]
      },
      "properties": {
        "name": "201 - Metrô Sumaré",
        "id": 201,
        "original_name": "Metrô Sumaré",
        "station_id": 201,
        "station": "201 - Metrô Sumaré"
      }
    },
    {
      "type": "Feature",
      "geometry": {
        "type": "Point",
        "coordinates": [
          -46.66469,
          -23.55753
        ]
      },
      "properties": {
        "name": "204 - Consolação",
        "id": 204,
        "original_name": "Consolação",
        "station_id": 204,
        "station": "204 - Consolação"
      }
    },
    {
      "type": "Feature",
      "geometry": {
        "type": "Point",
        "coordinates": [
          -46.6661513892479,
          -23.5580398903081
        ]
      },
      "properties": {
        "name": "205 - Alameda Itú 1571",
        "id": 205,
        "original_name": "Alameda Itú 1571",
        "station_id": 205,
        "station": "205 - Alameda Itú 1571"
      }
    },
    {
      "type": "Feature",
      "geometry": {
        "type": "Point",
        "coordinates": [
          -4666764.0,
          -23.56032
        ]
      },
      "properties": {
        "name": "206 - Alameda Tietê",
        "id": 206,
        "original_name": "Alameda Tietê",
        "station_id": 206,
        "station": "206 - Alameda Tietê"
      }
    },
    {
      "type": "Feature",
      "geometry": {
        "type": "Point",
        "coordinates": [
          -46.66805,
          -23.56226
        ]
      },
      "properties": {
        "name": "207 - Bela Cintra",
        "id": 207,
        "original_name": "Bela Cintra",
        "station_id": 207,
        "station": "207 - Bela Cintra"
      }
    },
    {
      "type": "Feature",
      "geometry": {
        "type": "Point",
        "coordinates": [
          -46.67026626,
          -23.55991951
        ]
      },
      "properties": {
        "name": "208 - Alameda Lorena",
        "id": 208,
        "original_name": "Alameda Lorena",
        "station_id": 208,
        "station": "208 - Alameda Lorena"
      }
    },
    {
      "type": "Feature",
      "geometry": {
        "type": "Point",
        "coordinates": [
          -46.6732,
          -23.5608
        ]
      },
      "properties": {
        "name": "211 - Rua Capote Valente",
        "id": 211,
        "original_name": "Rua Capote Valente",
        "station_id": 211,
        "station": "211 - Rua Capote Valente"
      }
    },
    {
      "type": "Feature",
      "geometry": {
        "type": "Point",
        "coordinates": [
          -46.6730138229932,
          -23.5633581560803
        ]
      },
      "properties": {
        "name": "212 - Rua Estados Unidos",
        "id": 212,
        "original_name": "Rua Estados Unidos",
        "station_id": 212,
        "station": "212 - Rua Estados Unidos"
      }
    },
    {
      "type": "Feature",
      "geometry": {
        "type": "Point",
        "coordinates": [
          -46.6784556405711,
          -23.5594417332263
        ]
      },
      "properties": {
        "name": "215 - E.E. Godofredo Furtado",
        "id": 215,
        "original_name": "E.E. Godofredo Furtado",
        "station_id": 215,
        "station": "215 - E.E. Godofredo Furtado"
      }
    },
    {
      "type": "Feature",
      "geometry": {
        "type": "Point",
        "coordinates": [
          -46.6765358521077,
          -23.5621418901363
        ]
      },
      "properties": {
        "name": "216 - João Moura 328",
        "id": 216,
        "original_name": "João Moura 328",
        "station_id": 216,
        "station": "216 - João Moura 328"
      }
    },
    {
      "type": "Feature",
      "geometry": {
        "type": "Point",
        "coordinates": [
          -46.6766107743796,
          -23.5651645970985
        ]
      },
      "properties": {
        "name": "217 - Alameda Gabriel",
        "id": 217,
        "original_name": "Alameda Gabriel",
        "station_id": 217,
        "station": "217 - Alameda Gabriel"
      }
    },
    {
      "type": "Feature",
      "geometry": {
        "type": "Point",
        "coordinates": [
          -46.6827775153217,
          -23.5625602390326
        ]
      },
      "properties": {
        "name": "219 - R. Joaquim Antunes",
        "id": 219,
        "original_name": "R. Joaquim Antunes",
        "station_id": 219,
        "station": "219 - R. Joaquim Antunes"
      }
    },
    {
      "type": "Feature",
      "geometry": {
        "type": "Point",
        "coordinates": [
          -46.6798554933234,
          -23.5643368077145
        ]
      },
      "properties": {
        "name": "220 - R. dos Pinheiros",
        "id": 220,
        "original_name": "R. dos Pinheiros",
        "station_id": 220,
        "station": "220 - R. dos Pinheiros"
      }
    },
    {
      "type": "Feature",
      "geometry": {
        "type": "Point",
        "coordinates": [
          -46.6871313395988,
          -23.5587392337508
        ]
      },
      "properties": {
        "name": "222 - Rua Horácio Lane",
        "id": 222,
        "original_name": "Rua Horácio Lane",
        "station_id": 222,
        "station": "222 - Rua Horácio Lane"
      }
    },
    {
      "type": "Feature",
      "geometry": {
        "type": "Point",
        "coordinates": [
          -46.6871566756018,
          -23.5620789029004
        ]
      },
      "properties": {
        "name": "223 - Fradique Coutinho 558",
        "id": 223,
        "original_name": "Fradique Coutinho 558",
        "station_id": 223,
        "station": "223 - Fradique Coutinho 558"
      }
    },
    {
      "type": "Feature",
      "geometry": {
        "type": "Point",
        "coordinates": [
          -46.6848831891663,
          -23.5655318803865
        ]
      },
      "properties": {
        "name": "224 - Metrô Fradique Coutinho",
        "id": 224,
        "original_name": "Metrô Fradique Coutinho",
        "station_id": 224,
        "station": "224 - Metrô Fradique Coutinho"
      }
    },
    {
      "type": "Feature",
      "geometry": {
        "type": "Point",
        "coordinates": [
          -46.6841990407743,
          -23.5687716945858
        ]
      },
      "properties": {
        "name": "225 - Sampaio Vidal 530",
        "id": 225,
        "original_name": "Sampaio Vidal 530",
        "station_id": 225,
        "station": "225 - Sampaio Vidal 530"
      }
    },
    {
      "type": "Feature",
      "geometry": {
        "type": "Point",
        "coordinates": [
          -46.6908515920839,
          -23.5610082884253
        ]
      },
      "properties": {
        "name": "227 - R. Simão Álvares",
        "id": 227,
        "original_name": "R. Simão Álvares",
        "station_id": 227,
        "station": "227 - R. Simão Álvares"
      }
    },
    {
      "type": "Feature",
      "geometry": {
        "type": "Point",
        "coordinates": [
          -46.6876470783052,
          -23.5661229934209
        ]
      },
      "properties": {
        "name": "229 - R. Artur de Azevedo",
        "id": 229,
        "original_name": "R. Artur de Azevedo",
        "station_id": 229,
        "station": "229 - R. Artur de Azevedo"
      }
    },
    {
      "type": "Feature",
      "geometry": {
        "type": "Point",
        "coordinates": [
          -46.6864501541007,
          -23.570130111217
        ]
      },
      "properties": {
        "name": "230 - R. Mariana Correia",
        "id": 230,
        "original_name": "R. Mariana Correia",
        "station_id": 230,
        "station": "230 - R. Mariana Correia"
      }
    },
    {
      "type": "Feature",
      "geometry": {
        "type": "Point",
        "coordinates": [
          -46.6953706304033,
          -23.5614126775109
        ]
      },
      "properties": {
        "name": "231 - Instituto Tomie Ohtake",
        "id": 231,
        "original_name": "Instituto Tomie Ohtake",
        "station_id": 231,
        "station": "231 - Instituto Tomie Ohtake"
      }
    },
    {
      "type": "Feature",
      "geometry": {
        "type": "Point",
        "coordinates": [
          -46.695663653168,
          -23.5652988887731
        ]
      },
      "properties": {
        "name": "232 - Rua Sumidouro",
        "id": 232,
        "original_name": "Rua Sumidouro",
        "station_id": 232,
        "station": "232 - Rua Sumidouro"
      }
    },
    {
      "type": "Feature",
      "geometry": {
        "type": "Point",
        "coordinates": [
          -46.699386022988,
          -23.5587771000465
        ]
      },
      "properties": {
        "name": "234 - Praça Roquete Pinto",
        "id": 234,
        "original_name": "Praça Roquete Pinto",
        "station_id": 234,
        "station": "234 - Praça Roquete Pinto"
      }
    },
    {
      "type": "Feature",
      "geometry": {
        "type": "Point",
        "coordinates": [
          -46.69823431,
          -23.57306366
        ]
      },
      "properties": {
        "name": "235 - CPTM Hebraica-Rebouças",
        "id": 235,
        "original_name": "CPTM Hebraica-Rebouças",
        "station_id": 235,
        "station": "235 - CPTM Hebraica-Rebouças"
      }
    },
    {
      "type": "Feature",
      "geometry": {
        "type": "Point",
        "coordinates": [
          -46.7020264210411,
          -23.5567956481546
        ]
      },
      "properties": {
        "name": "236 - Praça Ernâni Braga",
        "id": 236,
        "original_name": "Praça Ernâni Braga",
        "station_id": 236,
        "station": "236 - Praça Ernâni Braga"
      }
    },
    {
      "type": "Feature",
      "geometry": {
        "type": "Point",
        "coordinates": [
          -46.69622889,
          -23.55435409
        ]
      },
      "properties": {
        "name": "237 - BNH Vila Madalena",
        "id": 237,
        "original_name": "BNH Vila Madalena",
        "station_id": 237,
        "station": "237 - BNH Vila Madalena"
      }
    },
    {
      "type": "Feature",
      "geometry": {
        "type": "Point",
        "coordinates": [
          -46.7054156711198,
          -23.5553785015848
        ]
      },
      "properties": {
        "name": "238 - Av. dos Semaneiros",
        "id": 238,
        "original_name": "Av. dos Semaneiros",
        "station_id": 238,
        "station": "238 - Av. dos Semaneiros"
      }
    },
    {
      "type": "Feature",
      "geometry": {
        "type": "Point",
        "coordinates": [
          -46.707987125315,
          -23.5541789045117
        ]
      },
      "properties": {
        "name": "240 - Praça Panamericana",
        "id": 240,
        "original_name": "Praça Panamericana",
        "station_id": 240,
        "station": "240 - Praça Panamericana"
      }
    },
    {
      "type": "Feature",
      "geometry": {
        "type": "Point",
        "coordinates": [
          -46.7109312356492,
          -23.5567967829597
        ]
      },
      "properties": {
        "name": "241 - CPTM Cidade Universitária",
        "id": 241,
        "original_name": "CPTM Cidade Universitária",
        "station_id": 241,
        "station": "241 - CPTM Cidade Universitária"
      }
    },
    {
      "type": "Feature",
      "geometry": {
        "type": "Point",
        "coordinates": [
          -46.7261720365212,
          -23.5626317229985
        ]
      },
      "properties": {
        "name": "242 - Letras",
        "id": 242,
        "original_name": "Letras",
        "station_id": 242,
        "station": "242 - Letras"
      }
    },
    {
      "type": "Feature",
      "geometry": {
        "type": "Point",
        "coordinates": [
          -46.72710617306,
          -23.5599272394511
        ]
      },
      "properties": {
        "name": "243 - Bancos/Reitoria",
        "id": 243,
        "original_name": "Bancos/Reitoria",
        "station_id": 243,
        "station": "243 - Bancos/Reitoria"
      }
    },
    {
      "type": "Feature",
      "geometry": {
        "type": "Point",
        "coordinates": [
          -46.707937,
          -23.570593
        ]
      },
      "properties": {
        "name": "244 - Metrô Butantã",
        "id": 244,
        "original_name": "Metrô Butantã",
        "station_id": 244,
        "station": "244 - Metrô Butantã"
      }
    },
    {
      "type": "Feature",
      "geometry": {
        "type": "Point",
        "coordinates": [
          -46.7129912900556,
          -23.5654280569129
        ]
      },
      "properties": {
        "name": "245 - P1",
        "id": 245,
        "original_name": "P1",
        "station_id": 245,
        "station": "245 - P1"
      }
    },
    {
      "type": "Feature",
      "geometry": {
        "type": "Point",
        "coordinates": [
          -46.7131577012467,
          -23.5601005487719
        ]
      },
      "properties": {
        "name": "246 - Portão CPTM",
        "id": 246,
        "original_name": "Portão CPTM",
        "station_id": 246,
        "station": "246 - Portão CPTM"
      }
    },
    {
      "type": "Feature",
      "geometry": {
        "type": "Point",
        "coordinates": [
          -46.7175716449639,
          -23.562020824986
        ]
      },
      "properties": {
        "name": "247 - CEPE",
        "id": 247,
        "original_name": "CEPE",
        "station_id": 247,
        "station": "247 - CEPE"
      }
    },
    {
      "type": "Feature",
      "geometry": {
        "type": "Point",
        "coordinates": [
          -46.722825563147,
          -23.5625149269804
        ]
      },
      "properties": {
        "name": "248 - Biblioteca Brasiliana",
        "id": 248,
        "original_name": "Biblioteca Brasiliana",
        "station_id": 248,
        "station": "248 - Biblioteca Brasiliana"
      }
    },
    {
      "type": "Feature",
      "geometry": {
        "type": "Point",
        "coordinates": [
          -46.7216596885791,
          -23.5607214061912
        ]
      },
      "properties": {
        "name": "249 - Bandejão Central",
        "id": 249,
        "original_name": "Bandejão Central",
        "station_id": 249,
        "station": "249 - Bandejão Central"
      }
    },
    {
      "type": "Feature",
      "geometry": {
        "type": "Point",
        "coordinates": [
          -46.7243420069367,
          -23.5650987972422
        ]
      },
      "properties": {
        "name": "250 - Bandejão Química",
        "id": 250,
        "original_name": "Bandejão Química",
        "station_id": 250,
        "station": "250 - Bandejão Química"
      }
    },
    {
      "type": "Feature",
      "geometry": {
        "type": "Point",
        "coordinates": [
          -46.7291586728517,
          -23.559293584318
        ]
      },
      "properties": {
        "name": "251 - FAU",
        "id": 251,
        "original_name": "FAU",
        "station_id": 251,
        "station": "251 - FAU"
      }
    },
    {
      "type": "Feature",
      "geometry": {
        "type": "Point",
        "coordinates": [
          -46.7241492890766,
          -23.5551999484936
        ]
      },
      "properties": {
        "name": "252 - Psicologia",
        "id": 252,
        "original_name": "Psicologia",
        "station_id": 252,
        "station": "252 - Psicologia"
      }
    },
    {
      "type": "Feature",
      "geometry": {
        "type": "Point",
        "coordinates": [
          -46.7322053771584,
          -23.5560950313374
        ]
      },
      "properties": {
        "name": "253 - Pedalusp Biênio",
        "id": 253,
        "original_name": "Pedalusp Biênio",
        "station_id": 253,
        "station": "253 - Pedalusp Biênio"
      }
    },
    {
      "type": "Feature",
      "geometry": {
        "type": "Point",
        "coordinates": [
          -46.7322243615549,
          -23.5528308718055
        ]
      },
      "properties": {
        "name": "254 - Terminal de Ônibus USP",
        "id": 254,
        "original_name": "Terminal de Ônibus USP",
        "station_id": 254,
        "station": "254 - Terminal de Ônibus USP"
      }
    },
    {
      "type": "Feature",
      "geometry": {
        "type": "Point",
        "coordinates": [
          -46.7356926767203,
          -23.5606860577466
        ]
      },
      "properties": {
        "name": "255 - Bandejão Física",
        "id": 255,
        "original_name": "Bandejão Física",
        "station_id": 255,
        "station": "255 - Bandejão Física"
      }
    },
    {
      "type": "Feature",
      "geometry": {
        "type": "Point",
        "coordinates": [
          -46.7398201170462,
          -23.5597355337842
        ]
      },
      "properties": {
        "name": "256 - Bandejão Prefeitura",
        "id": 256,
        "original_name": "Bandejão Prefeitura",
        "station_id": 256,
        "station": "256 - Bandejão Prefeitura"
      }
    },
    {
      "type": "Feature",
      "geometry": {
        "type": "Point",
        "coordinates": [
          -46.7415201080188,
          -23.563675157567
        ]
      },
      "properties": {
        "name": "257 - Hospital Universitário",
        "id": 257,
        "original_name": "Hospital Universitário",
        "station_id": 257,
        "station": "257 - Hospital Universitário"
      }
    },
    {
      "type": "Feature",
      "geometry": {
        "type": "Point",
        "coordinates": [
          -46.7377390474673,
          -23.5670983269173
        ]
      },
      "properties": {
        "name": "258 - Odontologia",
        "id": 258,
        "original_name": "Odontologia",
        "station_id": 258,
        "station": "258 - Odontologia"
      }
    },
    {
      "type": "Feature",
      "geometry": {
        "type": "Point",
        "coordinates": [
          -46.7318266369691,
          -23.5685409711413
        ]
      },
      "properties": {
        "name": "259 - Vila Indiana",
        "id": 259,
        "original_name": "Vila Indiana",
        "station_id": 259,
        "station": "259 - Vila Indiana"
      }
    },
    {
      "type": "Feature",
      "geometry": {
        "type": "Point",
        "coordinates": [
          -46.7407149326958,
          -23.5682352949967
        ]
      },
      "properties": {
        "name": "260 - P3",
        "id": 260,
        "original_name": "P3",
        "station_id": 260,
        "station": "260 - P3"
      }
    },
    {
      "type": "Feature",
      "geometry": {
        "type": "Point",
        "coordinates": [
          -46.7118416376449,
          -23.5510667054953
        ]
      },
      "properties": {
        "name": "261 - Praça Pero Vaz de Caminha",
        "id": 261,
        "original_name": "Praça Pero Vaz de Caminha",
        "station_id": 261,
        "station": "261 - Praça Pero Vaz de Caminha"
      }
    },
    {
      "type": "Feature",
      "geometry": {
        "type": "Point",
        "coordinates": [
          -46.7175712669578,
          -23.5501563898634
        ]
      },
      "properties": {
        "name": "262 - Colégio Santa Cruz",
        "id": 262,
        "original_name": "Colégio Santa Cruz",
        "station_id": 262,
        "station": "262 - Colégio Santa Cruz"
      }
    },
    {
      "type": "Feature",
      "geometry": {
        "type": "Point",
        "coordinates": [
          -46.7162932669707,
          -23.5470791934803
        ]
      },
      "properties": {
        "name": "263 - Praça Beethoven",
        "id": 263,
        "original_name": "Praça Beethoven",
        "station_id": 263,
        "station": "263 - Praça Beethoven"
      }
    },
    {
      "type": "Feature",
      "geometry": {
        "type": "Point",
        "coordinates": [
          -46.7256937404967,
          -23.5435015914936
        ]
      },
      "properties": {
        "name": "264 - Parque Villa Lobos Portão 2",
        "id": 264,
        "original_name": "Parque Villa Lobos Portão 2",
        "station_id": 264,
        "station": "264 - Parque Villa Lobos Portão 2"
      }
    },
    {
      "type": "Feature",
      "geometry": {
        "type": "Point",
        "coordinates": [
          -46.7324399933472,
          -23.5456078360021
        ]
      },
      "properties": {
        "name": "267 - CPTM Villa Lobos Jaguaré",
        "id": 267,
        "original_name": "CPTM Villa Lobos Jaguaré",
        "station_id": 267,
        "station": "267 - CPTM Villa Lobos Jaguaré"
      }
    },
    {
      "type": "Feature",
      "geometry": {
        "type": "Point",
        "coordinates": [
          -46.6515349965968,
          -23.5636823643587
        ]
      },
      "properties": {
        "name": "268 - Hotel Maksoud Plaza",
        "id": 268,
        "original_name": "Hotel Maksoud Plaza",
        "station_id": 268,
        "station": "268 - Hotel Maksoud Plaza"
      }
    },
    {
      "type": "Feature",
      "geometry": {
        "type": "Point",
        "coordinates": [
          -46.6780573829128,
          -23.5645330138706
        ]
      },
      "properties": {
        "name": "270 - Praça Portugal",
        "id": 270,
        "original_name": "Praça Portugal",
        "station_id": 270,
        "station": "270 - Praça Portugal"
      }
    },
    {
      "type": "Feature",
      "geometry": {
        "type": "Point",
        "coordinates": [
          -46.6700667219887,
          -23.6232726724509
        ]
      },
      "properties": {
        "name": "272 - R. República do Iraque",
        "id": 272,
        "original_name": "R. República do Iraque",
        "station_id": 272,
        "station": "272 - R. República do Iraque"
      }
    },
    {
      "type": "Feature",
      "geometry": {
        "type": "Point",
        "coordinates": [
          -46.6940557491764,
          -23.6017705716527
        ]
      },
      "properties": {
        "name": "279 - Hotel Transamérica Berrini",
        "id": 279,
        "original_name": "Hotel Transamérica Berrini",
        "station_id": 279,
        "station": "279 - Hotel Transamérica Berrini"
      }
    },
    {
      "type": "Feature",
      "geometry": {
        "type": "Point",
        "coordinates": [
          -46.6809327504227,
          -23.5929529353691
        ]
      },
      "properties": {
        "name": "280 - Rua Cel. Joaquim Ferreira Lobo",
        "id": 280,
        "original_name": "Rua Cel. Joaquim Ferreira Lobo",
        "station_id": 280,
        "station": "280 - Rua Cel. Joaquim Ferreira Lobo"
      }
    },
    {
      "type": "Feature",
      "geometry": {
        "type": "Point",
        "coordinates": [
          -46.6797749451992,
          -23.592639676926
        ]
      },
      "properties": {
        "name": "281 - Rua Cel. Joaquim Ferreira Lobo II",
        "id": 281,
        "original_name": "Rua Cel. Joaquim Ferreira Lobo II",
        "station_id": 281,
        "station": "281 - Rua Cel. Joaquim Ferreira Lobo II"
      }
    },
    {
      "type": "Feature",
      "geometry": {
        "type": "Point",
        "coordinates": [
          -46.64896706,
          -23.54477907
        ]
      },
      "properties": {
        "name": "282 - Cunha Horta",
        "id": 282,
        "original_name": "Cunha Horta",
        "station_id": 282,
        "station": "282 - Cunha Horta"
      }
    },
    {
      "type": "Feature",
      "geometry": {
        "type": "Point",
        "coordinates": [
          -46.6650673803783,
          -23.5339723559402
        ]
      },
      "properties": {
        "name": "286 - Turiassu",
        "id": 286,
        "original_name": "Turiassu",
        "station_id": 286,
        "station": "286 - Turiassu"
      }
    },
    {
      "type": "Feature",
      "geometry": {
        "type": "Point",
        "coordinates": [
          -46.6630801969376,
          -23.5312748251908
        ]
      },
      "properties": {
        "name": "287 - Largo Padre Péricles",
        "id": 287,
        "original_name": "Largo Padre Péricles",
        "station_id": 287,
        "station": "287 - Largo Padre Péricles"
      }
    },
    {
      "type": "Feature",
      "geometry": {
        "type": "Point",
        "coordinates": [
          -46.657056,
          -23.5337422
        ]
      },
      "properties": {
        "name": "290 - Metrô Marechal Deodoro",
        "id": 290,
        "original_name": "Metrô Marechal Deodoro",
        "station_id": 290,
        "station": "290 - Metrô Marechal Deodoro"
      }
    },
    {
      "type": "Feature",
      "geometry": {
        "type": "Point",
        "coordinates": [
          -46.640856930462,
          -23.5789116092428
        ]
      },
      "properties": {
        "name": "292 - Rua Domingos de Moraes",
        "id": 292,
        "original_name": "Rua Domingos de Moraes",
        "station_id": 292,
        "station": "292 - Rua Domingos de Moraes"
      }
    },
    {
      "type": "Feature",
      "geometry": {
        "type": "Point",
        "coordinates": [
          -46.6377561803736,
          -23.5808426571183
        ]
      },
      "properties": {
        "name": "293 - Metrô Ana Rosa",
        "id": 293,
        "original_name": "Metrô Ana Rosa",
        "station_id": 293,
        "station": "293 - Metrô Ana Rosa"
      }
    },
    {
      "type": "Feature",
      "geometry": {
        "type": "Point",
        "coordinates": [
          -46.6364894393958,
          -23.5844511087101
        ]
      },
      "properties": {
        "name": "295 - Vergueiro",
        "id": 295,
        "original_name": "Vergueiro",
        "station_id": 295,
        "station": "295 - Vergueiro"
      }
    },
    {
      "type": "Feature",
      "geometry": {
        "type": "Point",
        "coordinates": [
          -46.6389882042411,
          -23.5808723459433
        ]
      },
      "properties": {
        "name": "296 - Largo Ana Rosa",
        "id": 296,
        "original_name": "Largo Ana Rosa",
        "station_id": 296,
        "station": "296 - Largo Ana Rosa"
      }
    },
    {
      "type": "Feature",
      "geometry": {
        "type": "Point",
        "coordinates": [
          -46.6428930721909,
          -23.5819406080888
        ]
      },
      "properties": {
        "name": "297 - SESC Vila Mariana",
        "id": 297,
        "original_name": "SESC Vila Mariana",
        "station_id": 297,
        "station": "297 - SESC Vila Mariana"
      }
    },
    {
      "type": "Feature",
      "geometry": {
        "type": "Point",
        "coordinates": [
          -46.6491158963983,
          -23.5909147225444
        ]
      },
      "properties": {
        "name": "301 - R. França Pinto",
        "id": 301,
        "original_name": "R. França Pinto",
        "station_id": 301,
        "station": "301 - R. França Pinto"
      }
    },
    {
      "type": "Feature",
      "geometry": {
        "type": "Point",
        "coordinates": [
          -46.6432336771114,
          -23.5871298485912
        ]
      },
      "properties": {
        "name": "303 - Rio Grande",
        "id": 303,
        "original_name": "Rio Grande",
        "station_id": 303,
        "station": "303 - Rio Grande"
      }
    },
    {
      "type": "Feature",
      "geometry": {
        "type": "Point",
        "coordinates": [
          -46.6422240650602,
          -23.5918790017162
        ]
      },
      "properties": {
        "name": "304 - Gandavo",
        "id": 304,
        "original_name": "Gandavo",
        "station_id": 304,
        "station": "304 - Gandavo"
      }
    },
    {
      "type": "Feature",
      "geometry": {
        "type": "Point",
        "coordinates": [
          -46.639732508207,
          -23.5894563363639
        ]
      },
      "properties": {
        "name": "305 - MUBA",
        "id": 305,
        "original_name": "MUBA",
        "station_id": 305,
        "station": "305 - MUBA"
      }
    },
    {
      "type": "Feature",
      "geometry": {
        "type": "Point",
        "coordinates": [
          -46.6350854815602,
          -23.5898021306398
        ]
      },
      "properties": {
        "name": "307 - Metrô Vila Mariana",
        "id": 307,
        "original_name": "Metrô Vila Mariana",
        "station_id": 307,
        "station": "307 - Metrô Vila Mariana"
      }
    },
    {
      "type": "Feature",
      "geometry": {
        "type": "Point",
        "coordinates": [
          -46.6376374921996,
          -23.5950450453396
        ]
      },
      "properties": {
        "name": "308 - Rua Cunha",
        "id": 308,
        "original_name": "Rua Cunha",
        "station_id": 308,
        "station": "308 - Rua Cunha"
      }
    },
    {
      "type": "Feature",
      "geometry": {
        "type": "Point",
        "coordinates": [
          -46.6369958975112,
          -23.6042263595434
        ]
      },
      "properties": {
        "name": "311 - Luis Góis",
        "id": 311,
        "original_name": "Luis Góis",
        "station_id": 311,
        "station": "311 - Luis Góis"
      }
    },
    {
      "type": "Feature",
      "geometry": {
        "type": "Point",
        "coordinates": [
          -46.6577541150754,
          -23.6005561179321
        ]
      },
      "properties": {
        "name": "312 - Parque das Bicicletas",
        "id": 312,
        "original_name": "Parque das Bicicletas",
        "station_id": 312,
        "station": "312 - Parque das Bicicletas"
      }
    },
    {
      "type": "Feature",
      "geometry": {
        "type": "Point",
        "coordinates": [
          -46.6527798263341,
          -23.5976149401058
        ]
      },
      "properties": {
        "name": "313 - METRÔ AACD SERVIDOR",
        "id": 313,
        "original_name": "METRÔ AACD SERVIDOR",
        "station_id": 313,
        "station": "313 - METRÔ AACD SERVIDOR"
      }
    },
    {
      "type": "Feature",
      "geometry": {
        "type": "Point",
        "coordinates": [
          -46.6469924961933,
          -23.5981107484271
        ]
      },
      "properties": {
        "name": "315 - Metrô Hospital São Paulo",
        "id": 315,
        "original_name": "Metrô Hospital São Paulo",
        "station_id": 315,
        "station": "315 - Metrô Hospital São Paulo"
      }
    },
    {
      "type": "Feature",
      "geometry": {
        "type": "Point",
        "coordinates": [
          -46.6379744781465,
          -23.6068678445822
        ]
      },
      "properties": {
        "name": "316 - Alameda das Boninas",
        "id": 316,
        "original_name": "Alameda das Boninas",
        "station_id": 316,
        "station": "316 - Alameda das Boninas"
      }
    },
    {
      "type": "Feature",
      "geometry": {
        "type": "Point",
        "coordinates": [
          -46.6391030550847,
          -23.5987326403293
        ]
      },
      "properties": {
        "name": "317 - R. Leonardo Nunes",
        "id": 317,
        "original_name": "R. Leonardo Nunes",
        "station_id": 317,
        "station": "317 - R. Leonardo Nunes"
      }
    },
    {
      "type": "Feature",
      "geometry": {
        "type": "Point",
        "coordinates": [
          -46.6616847898962,
          -23.6037621017182
        ]
      },
      "properties": {
        "name": "319 - Metrô Moema",
        "id": 319,
        "original_name": "Metrô Moema",
        "station_id": 319,
        "station": "319 - Metrô Moema"
      }
    },
    {
      "type": "Feature",
      "geometry": {
        "type": "Point",
        "coordinates": [
          -46.66336616,
          -23.60660832
        ]
      },
      "properties": {
        "name": "320 - Jandira",
        "id": 320,
        "original_name": "Jandira",
        "station_id": 320,
        "station": "320 - Jandira"
      }
    },
    {
      "type": "Feature",
      "geometry": {
        "type": "Point",
        "coordinates": [
          -46.6676509366036,
          -23.6035135859775
        ]
      },
      "properties": {
        "name": "321 - Gaivota",
        "id": 321,
        "original_name": "Gaivota",
        "station_id": 321,
        "station": "321 - Gaivota"
      }
    },
    {
      "type": "Feature",
      "geometry": {
        "type": "Point",
        "coordinates": [
          -46.6681444400963,
          -23.609452586953
        ]
      },
      "properties": {
        "name": "322 - Metrô Eucaliptos",
        "id": 322,
        "original_name": "Metrô Eucaliptos",
        "station_id": 322,
        "station": "322 - Metrô Eucaliptos"
      }
    },
    {
      "type": "Feature",
      "geometry": {
        "type": "Point",
        "coordinates": [
          -46.6679390776675,
          -23.6057036854932
        ]
      },
      "properties": {
        "name": "324 - Jauaperi",
        "id": 324,
        "original_name": "Jauaperi",
        "station_id": 324,
        "station": "324 - Jauaperi"
      }
    },
    {
      "type": "Feature",
      "geometry": {
        "type": "Point",
        "coordinates": [
          -46.6742727797395,
          -23.6042556584336
        ]
      },
      "properties": {
        "name": "325 - Pintassilgo",
        "id": 325,
        "original_name": "Pintassilgo",
        "station_id": 325,
        "station": "325 - Pintassilgo"
      }
    },
    {
      "type": "Feature",
      "geometry": {
        "type": "Point",
        "coordinates": [
          -46.6773097716024,
          -23.6135042882545
        ]
      },
      "properties": {
        "name": "328 - R. Demóstenes",
        "id": 328,
        "original_name": "R. Demóstenes",
        "station_id": 328,
        "station": "328 - R. Demóstenes"
      }
    },
    {
      "type": "Feature",
      "geometry": {
        "type": "Point",
        "coordinates": [
          -46.6804598847155,
          -23.6107351221245
        ]
      },
      "properties": {
        "name": "332 - Rua Nova York",
        "id": 332,
        "original_name": "Rua Nova York",
        "station_id": 332,
        "station": "332 - Rua Nova York"
      }
    },
    {
      "type": "Feature",
      "geometry": {
        "type": "Point",
        "coordinates": [
          -46.6813978502872,
          -23.6170138247081
        ]
      },
      "properties": {
        "name": "333 - Rua Flórida 53",
        "id": 333,
        "original_name": "Rua Flórida 53",
        "station_id": 333,
        "station": "333 - Rua Flórida 53"
      }
    },
    {
      "type": "Feature",
      "geometry": {
        "type": "Point",
        "coordinates": [
          -46.6832068389874,
          -23.6129704331121
        ]
      },
      "properties": {
        "name": "334 - R. Pe. Antônio",
        "id": 334,
        "original_name": "R. Pe. Antônio",
        "station_id": 334,
        "station": "334 - R. Pe. Antônio"
      }
    },
    {
      "type": "Feature",
      "geometry": {
        "type": "Point",
        "coordinates": [
          -46.6859131865383,
          -23.6106846259976
        ]
      },
      "properties": {
        "name": "335 - R. Ribeiro do Vale",
        "id": 335,
        "original_name": "R. Ribeiro do Vale",
        "station_id": 335,
        "station": "335 - R. Ribeiro do Vale"
      }
    },
    {
      "type": "Feature",
      "geometry": {
        "type": "Point",
        "coordinates": [
          -46.6889117358413,
          -23.6110922047536
        ]
      },
      "properties": {
        "name": "336 - Flórida 1020",
        "id": 336,
        "original_name": "Flórida 1020",
        "station_id": 336,
        "station": "336 - Flórida 1020"
      }
    },
    {
      "type": "Feature",
      "geometry": {
        "type": "Point",
        "coordinates": [
          -46.6839186756531,
          -23.6188143994929
        ]
      },
      "properties": {
        "name": "339 - R. Min. Luiz Gallotti",
        "id": 339,
        "original_name": "R. Min. Luiz Gallotti",
        "station_id": 339,
        "station": "339 - R. Min. Luiz Gallotti"
      }
    },
    {
      "type": "Feature",
      "geometry": {
        "type": "Point",
        "coordinates": [
          -46.6869891386348,
          -23.6240902348926
        ]
      },
      "properties": {
        "name": "341 - Pássaros e Flores",
        "id": 341,
        "original_name": "Pássaros e Flores",
        "station_id": 341,
        "station": "341 - Pássaros e Flores"
      }
    },
    {
      "type": "Feature",
      "geometry": {
        "type": "Point",
        "coordinates": [
          -46.7005347626514,
          -23.6235674733867
        ]
      },
      "properties": {
        "name": "344 - Rochaverá",
        "id": 344,
        "original_name": "Rochaverá",
        "station_id": 344,
        "station": "344 - Rochaverá"
      }
    },
    {
      "type": "Feature",
      "geometry": {
        "type": "Point",
        "coordinates": [
          -46.6965638090644,
          -23.6194058975209
        ]
      },
      "properties": {
        "name": "345 - R. Henrique Fischer",
        "id": 345,
        "original_name": "R. Henrique Fischer",
        "station_id": 345,
        "station": "345 - R. Henrique Fischer"
      }
    },
    {
      "type": "Feature",
      "geometry": {
        "type": "Point",
        "coordinates": [
          -46.6947383990985,
          -23.6213921603005
        ]
      },
      "properties": {
        "name": "346 - Bacaetava",
        "id": 346,
        "original_name": "Bacaetava",
        "station_id": 346,
        "station": "346 - Bacaetava"
      }
    },
    {
      "type": "Feature",
      "geometry": {
        "type": "Point",
        "coordinates": [
          -46.6875731165835,
          -23.6268943468695
        ]
      },
      "properties": {
        "name": "347 - Metrô Brooklin",
        "id": 347,
        "original_name": "Metrô Brooklin",
        "station_id": 347,
        "station": "347 - Metrô Brooklin"
      }
    },
    {
      "type": "Feature",
      "geometry": {
        "type": "Point",
        "coordinates": [
          -46.6442662143517,
          -23.5716043779296
        ]
      },
      "properties": {
        "name": "354 - Praça Oswaldo Cruz",
        "id": 354,
        "original_name": "Praça Oswaldo Cruz",
        "station_id": 354,
        "station": "354 - Praça Oswaldo Cruz"
      }
    },
    {
      "type": "Feature",
      "geometry": {
        "type": "Point",
        "coordinates": [
          -46.6465303687604,
          -23.5727122052325
        ]
      },
      "properties": {
        "name": "355 - R. Dr. Rafael de Barros",
        "id": 355,
        "original_name": "R. Dr. Rafael de Barros",
        "station_id": 355,
        "station": "355 - R. Dr. Rafael de Barros"
      }
    },
    {
      "type": "Feature",
      "geometry": {
        "type": "Point",
        "coordinates": [
          -46.722562508944,
          -23.5516652847067
        ]
      },
      "properties": {
        "name": "358 - Shopping Villa Lobos",
        "id": 358,
        "original_name": "Shopping Villa Lobos",
        "station_id": 358,
        "station": "358 - Shopping Villa Lobos"
      }
    },
    {
      "type": "Feature",
      "geometry": {
        "type": "Point",
        "coordinates": [
          -46.69641184041,
          -23.6099798374046
        ]
      },
      "properties": {
        "name": "359 - CENU",
        "id": 359,
        "original_name": "CENU",
        "station_id": 359,
        "station": "359 - CENU"
      }
    }
  ]
}